"","ClientName","Admin2009","Admin2010","Admin2011","Admin2012","Admin2013","Admin2014","Admin2015"
"1","1000 Friends of Connecticut","$6,062.24",NA,NA,NA,NA,NA,NA
"2","142 Railroad Avenue LLC",NA,"$10,600.00",NA,NA,NA,NA,NA
"3","1454East Street, LLC",NA,"$3,108.00",NA,NA,NA,NA,NA
"4","21st century recycling.org","$0.00",NA,NA,NA,NA,NA,NA
"5","3M Health Information Systems",NA,NA,NA,"$24,228.75","$69,627.50","$63,937.50",NA
"6","4uDoctor",NA,"$0.00","$0.00","$0.00",NA,NA,NA
"7","625 West Avenue Associates","$6,678.00","$1,060.00",NA,NA,NA,NA,NA
"8","7-Eleven, Inc.",NA,NA,"$0.00","$0.00","$0.00",NA,NA
"9","95/7 Ventures, LLC","$8,480.00","$0.00",NA,NA,NA,NA,NA
"10","AAA Allied Group",NA,NA,"$0.00","$275.00","$0.00","$0.00",NA
"11","AAA Allied Grp",NA,"$0.00",NA,NA,NA,NA,NA
"12","AAA Northeast",NA,NA,NA,"$4,848.30","$7,667.05","$3,975.48","$2,658.75"
"13","AARP","$0.00","$400.00","$5,102.50","$8,884.95","$4,254.08","$5,334.53","$2,464.70"
"14","AAUP/UCONN Chapter","$0.00","$0.00","$0.00","$0.00","$0.00","$15,000.00","$9,750.00"
"15","Abbott Laboratories","$2,646.00","$11,000.00","$50,500.00","$47,875.00","$0.00","$8,750.00","$0.00"
"16","AbbVie Inc.",NA,NA,NA,NA,NA,"$0.00","$9,052.80"
"17","A Better Connecticut",NA,NA,NA,NA,"$0.00",NA,NA
"18","A Better Way Foundation","$74.53","$2,566.67",NA,NA,NA,NA,NA
"19","A Better Way Wholesale Autos, Inc.",NA,NA,NA,NA,"$0.00","$0.00","$10,635.00"
"20","Ability Beyond Disability",NA,NA,NA,"$0.00","$26,250.00","$45,250.00","$24,000.00"
"21","Acadia Center",NA,"$0.00","$0.00","$0.00","$0.00","$0.00","$0.00"
"22","Accenture LLP","$11,660.00","$2,120.00",NA,NA,NA,"$23,060.84","$24,668.24"
"23","Access Community Action Agency","$983.75",NA,NA,NA,NA,NA,NA
"24","Access Connecticut Now, Inc.",NA,NA,NA,NA,"$0.00","$0.00","$0.00"
"25","Accreditation Association for Ambulatory Health Care (AAAHC)",NA,NA,NA,NA,NA,"$0.00","$0.00"
"26","Accredited Surety & Casualty Co., Inc.","$10,824.96","$10,599.96","$11,349.63","$883.00",NA,NA,"$15,952.50"
"27","AccuShares Investment Management LLC",NA,NA,NA,NA,NA,"$0.00",NA
"28","ACE Group - North America",NA,"$0.00","$0.00","$0.00","$0.00","$0.00","$0.00"
"29","Achievement First","$331.73","$0.00","$0.00","$0.00","$0.00","$0.00","$0.00"
"30","ACT Group, LLC",NA,NA,NA,NA,NA,"$3,205.18","$634.93"
"31","ADP TotalSource","$0.00",NA,NA,NA,NA,NA,NA
"32","Advanced BioHealing, Inc.",NA,"$22,896.00",NA,NA,NA,NA,NA
"33","Advanced Cancer Therapies of America LLC",NA,NA,NA,"$99,437.25",NA,NA,NA
"34","Advanced Drainage Systems","$22,260.00","$0.00","$9,000.00","$18,000.00","$4,500.00","$18,000.00","$9,000.00"
"35","Advantage Capital Partners","$1,787.80","$1,288.65","$11,729.76","$33,790.86","$69,100.50","$56,365.50","$75,489.67"
"36","Advocacy for Patients with Chronic Illness, Inc.","$0.00",NA,NA,NA,NA,NA,NA
"37","Advocates for CT Children & Youth","$0.00",NA,NA,NA,NA,NA,NA
"38","AdvoServ",NA,NA,NA,NA,NA,NA,"$4,999.44"
"39","AEG",NA,NA,"$0.00","$0.00","$3,722.26",NA,NA
"40","AES Thames",NA,"$0.00",NA,NA,NA,NA,NA
"41","Aetna, Inc.","$95,900.00","$0.00","$0.00","$0.00","$68,877.50","$83,833.75","$0.00"
"42","Affinity Health, LLC",NA,"$13,333.34",NA,NA,NA,NA,NA
"43","AFLAC","$14,575.00","$15,900.00","$6,625.00","$17,539.12","$16,377.90","$17,866.80","$8,933.40"
"44","AFSCME Council 15 Connecticut Council of Police",NA,NA,NA,NA,NA,NA,"$5,355.78"
"45","AFSCME Council 4","$141,370.91","$114,185.34","$228,492.77","$217,236.77","$151,791.85","$163,384.00","$77,497.80"
"46","AFT Connecticut","$6,759.57","$3,067.83","$0.00","$42,281.63","$0.00","$20,360.91","$20,878.31"
"47","AIA Connecticut","$9,670.00","$9,000.00",NA,NA,"$1,168.26","$2,774.60","$2,944.13"
"48","AIDS Connecticut, Inc.","$0.00","$0.00","$0.00","$0.00","$0.00","$0.00","$0.00"
"49","Aircraft Serivce International Group",NA,NA,"$0.00",NA,NA,NA,NA
"50","Airwell H2O, Inc.",NA,"$18,514.67","$2,000.00","$0.00",NA,NA,NA
"51","Albert D. Phelps, Inc.",NA,"$0.00",NA,NA,NA,NA,NA
"52","Alexion Pharmaceuticals, Inc.",NA,NA,NA,NA,"$0.00","$0.00","$0.00"
"53","Alkon",NA,NA,NA,NA,"$38,286.00","$46,794.00","$12,762.00"
"54","Allergan, Inc.","$0.00","$1,491.00","$4,000.00","$19,143.00","$550.00","$0.00","$0.00"
"55","Allergan plc f/k/a Actavis plc",NA,"$1,814.00","$1,460.00","$1,280.00","$1,883.41","$2,518.42","$750.00"
"56","Alliance Energy Corporation","$0.00","$0.00","$0.00","$0.00","$0.00","$0.00","$0.00"
"57","Alliance for Responsible Consumer Legal Funding",NA,NA,NA,"$0.00",NA,NA,NA
"58","Alliance of Automobile Manufacturers","$0.00","$0.00","$0.00","$0.00","$0.00","$0.00","$0.00"
"59","All-Star Driver",NA,NA,NA,NA,NA,NA,"$0.00"
"60","Allstate Insurance Company","$14,423.71","$12,760.00","$12,760.00","$12,760.00","$13,200.00","$11,600.00","$3,480.00"
"61","Allvision","$5,300.00",NA,NA,NA,NA,NA,NA
"62","All Waste","$0.00","$1,431.00","$0.00","$0.00","$0.00","$0.00","$0.00"
"63","Almada Lodge-Times Farm Camp Corp. D/B/A Channel 3 Kids Camp",NA,NA,NA,NA,NA,NA,"$793.38"
"64","ALSO-Cornerstone, Inc.","$0.00",NA,NA,NA,NA,NA,NA
"65","Alternative Fuels Coalition of Connecticut",NA,NA,NA,NA,NA,NA,"$3,190.50"
"66","Altria Client Services LLC and its Affiliates","$0.00","$1,381.50","$11,137.22","$4,354.91","$3,415.81","$12,000.00","$6,000.00"
"67","Alzheimer's Association/CT Chapter","$5,109.90","$3,871.00","$970.00","$1,790.00","$4,634.65","$203.00","$1,912.50"
"68","Amazon","$0.00","$0.00","$0.00","$0.00","$21,270.00","$23,397.00","$2,127.00"
"69","AMCO Precision Tool Inc.",NA,NA,NA,NA,NA,"$21,655.00","$16,702.50"
"70","Amer. Institute for Foreign Study",NA,NA,NA,NA,NA,NA,"$0.00"
"71","Ameresco",NA,"$12,798.44","$50,961.44","$46,794.00","$31,961.54","$27,651.00","$22,067.63"
"72","America's Natural Gas Alliance",NA,NA,NA,NA,"$20,155.27","$20,503.76","$3,190.50"
"73","American Academy of Matrimonial Lawyers Connecticut Chapter",NA,NA,NA,"$0.00",NA,NA,NA
"74","American Academy Pediatrics, CT Chapter","$0.00","$0.00","$8,155.14","$27,280.38","$6,013.84","$21,048.44","$0.00"
"75","American Assoc. University Professors","$0.00","$4,500.00","$4,770.00","$0.00","$0.00","$0.00","$0.00"
"76","American Assocation of Preferred Provider Organizations","$0.00","$0.00","$5,500.00","$0.00","$0.00",NA,NA
"77","American Broadcasting Companies, Inc.","$25,035.57",NA,NA,NA,NA,NA,NA
"78","American Cancer Society","$39,251.00","$7,000.00","$23,378.20","$1,700.00",NA,NA,NA
"79","American Cancer Society Cancer Action Network","$0.00",NA,NA,"$5,232.09","$650.00","$1,200.00","$600.00"
"80","American Chemistry Council","$0.00","$0.00","$0.00","$0.00","$0.00","$0.00","$0.00"
"81","American Civil Liberties Union of Connecticut","$0.00","$11,250.00","$0.00","$0.00","$0.00","$0.00","$0.00"
"82","American Cleaning Institute","$0.00","$0.00",NA,NA,"$0.00",NA,NA
"83","American Coatings Association",NA,"$0.00","$0.00","$0.00",NA,NA,"$25,524.00"
"84","American College Nurse Midwives-CT Chapter","$0.00","$0.00","$0.00","$0.00",NA,NA,NA
"85","American College of Cardiology, American Chapter","$0.00","$0.00","$0.00","$0.00",NA,NA,NA
"86","American College of Nurse-Midwives-CT Affiliate",NA,NA,NA,NA,"$0.00","$0.00","$0.00"
"87","American Concrete Pipe Association",NA,NA,NA,NA,NA,NA,"$16,242.50"
"88","American Congress of Obstetricians and Gynecologists",NA,NA,NA,"$27,499.27","$0.00","$0.00",NA
"89","American Council of Engineering Companies of CT","$591.15","$1,646.05","$1,100.02","$976.54","$2,904.66","$2,210.10","$688.19"
"90","American Council of Life Insurers","$35,469.89","$3,605.37","$4,342.89","$2,744.56","$5,244.97","$9,007.00","$4,082.00"
"91","American Diabetes Association",NA,NA,NA,"$3,276.16",NA,NA,NA
"92","American Express Company","$4,028.00","$4,028.00","$6,360.00","$6,381.00","$6,806.40","$3,403.20","$3,403.20"
"93","American Fair Credit Council c/o MultiState Associates Inc.","$0.00","$0.00",NA,"$0.00",NA,NA,NA
"94","American Farmland Trust","$0.00","$0.00","$0.00","$0.00","$0.00","$3,901.00","$2,750.00"
"95","American Forest & Paper Association c/o MultiState Associates Inc.","$0.00",NA,NA,"$0.00","$1,280.40",NA,NA
"96","American Heart Association","$6,000.00","$4,650.96","$2,443.00","$646.00","$1,181.00","$614.00","$20,899.68"
"97","American Insurance Association","$17,859.84","$6,233.28",NA,NA,NA,NA,NA
"98","American International Group",NA,NA,"$4,750.00",NA,NA,NA,NA
"99","American International Group, Inc.",NA,NA,"$500.00","$0.00","$0.00","$7,976.26",NA
"100","American International Group Inc.","$0.00","$0.00",NA,NA,NA,NA,"$3,988.13"
"101","American Land Title Association",NA,NA,NA,NA,NA,"$13,137.00",NA
"102","American Legal Finance Association",NA,NA,NA,"$0.00",NA,NA,NA
"103","American Lung Assoc. of CT","$0.00",NA,NA,NA,NA,NA,NA
"104","American Lung Association of the Northeast","$0.00","$937.50","$7,500.00","$464.58","$377.20","$1,291.40","$650.07"
"105","American Massage Therapy Association","$0.00","$0.00","$9,000.00","$0.00","$18,000.00","$6,000.00","$0.00"
"106","American Medical Response of CT, Inc.",NA,NA,NA,"$17,912.57","$19,747.50","$19,497.50","$12,907.50"
"107","American Medical Technologists",NA,NA,NA,NA,NA,NA,"$0.00"
"108","American Petroleum Institute","$2,100.00","$11,440.00","$1,800.00","$23,199.00","$6,274.00","$1,000.00","$400.00"
"109","American Red Cross/Blood Services of CT","$7,500.00","$7,500.00","$8,125.00","$8,125.00","$8,375.00","$8,375.00","$8,375.00"
"110","American Resort Development Association","$0.00",NA,NA,NA,NA,NA,NA
"111","American School for the Deaf","$0.00","$0.00","$0.00","$0.00","$0.00","$0.00","$0.00"
"112","Americans For Prosperity",NA,NA,NA,"$425.01","$0.00",NA,NA
"113","American Society of Civil Engineers c/o MultiState Associates Inc.",NA,NA,NA,"$0.00",NA,NA,NA
"114","American Society of Consultant Pharmacists","$5,525.00","$6,625.00","$8,296.26","$7,976.28",NA,NA,NA
"115","American Society of Home Inspectors/SNEC","$0.00","$0.00","$2,390.24","$1,935.00","$0.00","$0.00","$0.00"
"116","American Staffing Association",NA,NA,NA,NA,"$0.00",NA,NA
"117","American Suntanning Association",NA,NA,NA,NA,"$4,254.00",NA,NA
"118","American Traffic Solutions, Inc.",NA,NA,"$0.00","$0.00","$0.00",NA,NA
"119","AmeriChoice of Connecticut",NA,"$1,046.04","$5,445.63",NA,NA,NA,NA
"120","AmeriGas Propane, L.P.",NA,"$51,506.52","$4,000.59","$297.33",NA,NA,NA
"121","Amgen","$715.00","$260.00",NA,NA,"$1,797.40","$569.00","$1,286.97"
"122","Amplify Education, Inc.",NA,NA,NA,NA,"$1,250.00","$8,781.50",NA
"123","ANG, Inc.","$0.00","$0.00","$2,120.00","$5,317.50","$6,404.82","$6,181.00","$5,503.61"
"124","Anheuser-Busch Companies","$41,685.55","$100,045.32","$100,045.32","$58,359.77","$105,084.68","$105,292.30","$55,610.25"
"125","Anthem, Inc. and Its Affiliates dba Anthem Blue Cross Blue Shield of Connecticut","$65,660.00","$69,900.00","$70,028.50","$72,083.50","$4,340.00","$5,900.00","$1,950.00"
"126","Anthony V. Avallone","$0.00",NA,NA,NA,NA,NA,NA
"127","Anti-Defamation League","$0.00","$0.00","$0.00","$0.00","$0.00","$0.00","$0.00"
"128","AOL Inc.","$11,448.00","$10,494.00","$6,693.75","$9,571.50","$10,528.65","$2,871.45",NA
"129","Apollo Education Group Inc./University of Phoenix","$18,240.00","$20,670.00","$19,106.25","$19,143.00","$17,547.75","$17,452.50",NA
"130","Apple Health Care, Inc.","$3,312.50","$3,312.50","$13,249.98","$0.00","$0.00","$0.00",NA
"131","Apple Inc.","$0.00","$3,975.00","$0.00","$0.00","$0.00","$933.25","$12,762.00"
"132","Applus+ Technologies Inc. c/o MultiState Associates Inc.","$0.00","$0.00","$0.00","$0.00","$0.00","$0.00","$0.00"
"133","Aquarion Co.","$0.00","$0.00","$0.00","$0.00","$0.00","$0.00",NA
"134","Aramark Correctional Services LLC",NA,NA,"$1,590.00","$1,063.50",NA,NA,NA
"135","Arbella, Inc.","$0.00","$0.00",NA,NA,NA,NA,NA
"136","Area Health Education Center Program","$1,999.00","$1,999.00","$0.00","$0.00",NA,NA,NA
"137","Area Health Education Centers",NA,NA,NA,NA,"$0.00","$0.00","$0.00"
"138","AREVA, Inc.",NA,NA,"$0.00","$0.00",NA,NA,NA
"139","Aristeia Capital, LLC",NA,NA,NA,NA,NA,"$47,857.50",NA
"140","Arthritis Foundation, New England Region, Inc.",NA,NA,NA,NA,"$2,152.91","$4,980.44","$3,172.94"
"141","AshBritt, Inc.",NA,NA,NA,"$5,817.50",NA,"$35,057.40",NA
"142","ASPCA","$0.00","$0.00","$210.00","$860.00","$1,750.00","$0.00","$0.00"
"143","ASPPA","$0.00",NA,NA,"$0.00","$0.00","$0.00",NA
"144","ASSA ABLOY Americas",NA,NA,"$750.00","$15,952.50","$9,571.50","$3,190.50","$0.00"
"145","Assisted Living Services, Inc.",NA,"$0.00",NA,NA,NA,NA,NA
"146","Associated Builders & Contractors, Inc.","$0.00","$14,352.07","$19,811.10","$4,867.97","$6,509.36","$0.00","$0.00"
"147","Associated Sheet Metal & Roofing Contractors of Connecticut",NA,NA,NA,NA,"$0.00","$0.00","$0.00"
"148","Association of American Publishers c/o MultiState Associates Inc.",NA,NA,NA,NA,"$0.00","$0.00",NA
"149","Association of Commuter Rail Employees",NA,NA,NA,NA,NA,"$11,698.50","$6,381.00"
"150","Association of Connecticut Ambulance Providers","$57,302.75","$49,102.75","$10,820.25","$26,276.50","$0.00","$0.00","$0.00"
"151","Association of Managerial Employees in Connecticut State Service","$0.00","$0.00","$0.00","$0.00","$0.00","$0.00","$0.00"
"152","Association of Retired Teachers of Connecticut","$2,000.00","$1,015.50",NA,NA,NA,NA,NA
"153","Association of Retired Teachers of Connecticut, Inc",NA,NA,"$0.00","$0.00","$0.00","$0.00",NA
"154","AstraZeneca Pharmaceuticals, LP","$0.00","$1,426.87","$1,220.71","$0.00","$0.00","$0.00","$0.00"
"155","Asurion",NA,NA,"$0.00","$0.00","$0.00","$0.00",NA
"156","AT&T Corp.","$37,519.55","$72,112.25","$95,339.75","$114,691.58","$109,192.64","$95,767.09","$0.00"
"157","Athena Health Care Systems","$0.00","$0.00","$0.00","$0.00","$0.00","$0.00","$0.00"
"158","Auctor Corporation","$18,550.00","$0.00","$0.00","$3,722.25","$2,658.75",NA,"$0.00"
"159","Audatex, A Solera Company","$0.00",NA,"$0.00",NA,NA,NA,NA
"160","Audubon Connecticut",NA,NA,"$7,750.00","$7,500.00",NA,NA,NA
"161","Auto Body Assoc. of CT","$0.00","$0.00","$0.00","$0.00","$0.00","$0.00","$0.00"
"162","Auto Glass of New England Hamden, LLC",NA,NA,"$0.00","$937.29",NA,NA,NA
"163","Automatic Data Processing, Inc.",NA,NA,NA,NA,NA,NA,"$0.00"
"164","Avis Budget Group","$0.00","$0.00","$0.00","$0.00","$0.00","$0.00",NA
"165","Avon Products, Inc",NA,NA,"$0.00",NA,NA,NA,NA
"166","AVWatch, Inc.",NA,NA,"$6,004.00","$1,972.25","$95.26",NA,NA
"167","backnine NETWORK",NA,NA,"$15,639.00","$40,514.18","$28,916.43","$20,937.61",NA
"168","BAIL USA, INC.",NA,NA,"$0.00",NA,NA,NA,NA
"169","Bank of America, N.A.","$0.00","$0.00","$261.54","$2,462.04","$742.37","$451.93",NA
"170","Bank of America Corporation",NA,NA,NA,"$62,567.40","$34,669.30","$56,030.94","$28,013.06"
"171","Barclays Capital, Inc.",NA,NA,"$1,480.00","$8,697.55",NA,"$7,094.54","$1,081.73"
"172","Barkan Properties, LLC","$168.12","$0.00",NA,NA,NA,NA,NA
"173","Bartron Medical Imaging",NA,NA,NA,"$12,657.23",NA,NA,NA
"174","Bauza & Associates, LLC",NA,NA,NA,"$10,066.78","$0.00",NA,NA
"175","Bayer Corporation","$1,495.70","$2,876.00","$3,114.50","$3,413.00","$2,809.00","$147.20","$0.00"
"176","BEACON of CT, Inc.","$0.00","$0.00",NA,NA,NA,NA,NA
"177","Becker Development Associates LLC","$43,966.50","$13,250.17",NA,NA,NA,NA,NA
"178","Benchmark Senior Living",NA,NA,"$27,119.25",NA,NA,NA,"$30,043.88"
"179","Benevis LLC",NA,NA,NA,NA,NA,NA,"$0.00"
"180","Berlin Corporation","$0.00",NA,NA,NA,NA,NA,NA
"181","Bestech Inc. of CT","$8,612.50","$7,950.00","$7,300.64","$7,976.28","$8,476.28","$7,976.28","$3,323.45"
"182","Better Choice",NA,NA,"$141.50",NA,"$0.00",NA,NA
"183","Bevmax International, Inc",NA,NA,NA,"$0.00",NA,NA,NA
"184","Big Brothers Big Sisters of SE, SW CT","$1,687.38","$2,083.09",NA,NA,NA,NA,NA
"185","Big Night Venues, LLC",NA,NA,NA,"$0.00",NA,NA,NA
"186","Bike Walk Connecticut",NA,NA,"$200.00",NA,"$631.05","$617.84","$0.00"
"187","Biogen",NA,NA,NA,NA,NA,NA,"$93.00"
"188","Biotechnology Industry Organization",NA,NA,NA,NA,"$0.00","$0.00","$0.00"
"189","Bio Wellness, Inc.",NA,NA,NA,NA,"$21,270.00","$21,270.00",NA
"190","Black Alliance for Educational Options (BAEO)",NA,NA,"$378.00",NA,NA,NA,NA
"191","Blackrock Realty, LLC","$6,213.02",NA,NA,NA,NA,NA,NA
"192","Bloom Energy",NA,NA,NA,"$0.00","$0.00","$0.00","$0.00"
"193","Blum, Shapiro & Company, P.C.","$29,300.00","$31,800.00","$69,271.08","$75,296.91","$52,893.25","$58,403.82","$9,748.74"
"194","BNE Energy Inc.",NA,"$0.00","$0.00","$0.00",NA,NA,"$0.00"
"195","Boehringer Ingelheim Pharmaceuticals, Inc.","$0.00","$0.00","$0.00","$738.02","$1,506.04","$1,127.60","$83.80"
"196","Bombardier Transit Corporation","$0.00","$0.00",NA,NA,NA,NA,NA
"197","Boralex, Inc.","$0.00","$0.00","$0.00","$0.00",NA,NA,NA
"198","Boys & Girls Village, Inc.","$0.00","$11,666.65","$0.00","$0.00","$0.00","$2,333.33","$12,000.00"
"199","Bradley Airport Valet Parking Association",NA,NA,NA,NA,NA,NA,"$531.75"
"200","Bradley Off Airport Association",NA,NA,NA,NA,"$13,793.74","$8,518.01",NA
"201","Brain Injury Alliance of Connecticut","$4,800.00","$1,200.00","$1,200.00","$0.00","$0.00","$0.00","$0.00"
"202","Brazilian Immigrant Center",NA,NA,NA,NA,NA,"$0.00","$0.00"
"203","Brenda Torres",NA,NA,NA,NA,"$250.00","$750.00",NA
"204","Brescome Barton, Inc.",NA,NA,NA,"$42,253.11","$57,645.88","$58,492.26","$0.00"
"205","Briarpatch Enterprises",NA,NA,NA,NA,"$2,658.75",NA,NA
"206","Bridgeport Child Advocacy Coalition","$1,108.46","$377.60","$1,769.60","$1,063.40","$0.00","$0.00","$91.94"
"207","Bridgeport Hospital","$0.00","$0.00",NA,NA,NA,NA,NA
"208","Bridgeport Landing Development, LLC","$26,875.00","$33,492.40","$26,802.50","$34,563.75","$31,905.00","$29,246.25","$15,952.50"
"209","Bridgeport Port Authority","$0.00","$6,000.00",NA,NA,NA,NA,NA
"210","Bridges - A Community Support System, Inc.",NA,"$0.00","$0.00","$0.00","$0.00","$0.00",NA
"211","Bristol Hospital and Health Care Group, Inc.","$0.00","$0.00","$0.00","$0.00","$0.00","$0.00","$0.00"
"212","Bristol-Myers Squibb Company","$17,303.52","$24,311.08","$12,660.00","$24,625.00","$27,961.00","$30,158.00","$12,418.00"
"213","Bristol Resource Recovery Facility Operating Committee","$8,369.34","$8,456.00","$7,196.80","$9,554.20","$7,516.60","$7,163.76","$1,745.44"
"214","Broadwater, LTD","$0.00",NA,NA,NA,NA,NA,NA
"215","Bronx Charter School of Excellence",NA,NA,NA,NA,NA,NA,"$0.00"
"216","Brookfield Energy Marketing LP",NA,NA,NA,NA,"$3,535.34","$784.73","$9,342.42"
"217","BRT Brookview, LLC","$12,000.00",NA,NA,NA,NA,NA,NA
"218","Buckeye Pipe Line Company , LP",NA,NA,NA,"$16,702.50",NA,NA,NA
"219","Burlington Electric Department",NA,"$0.00","$0.00",NA,"$0.00",NA,NA
"220","Burns Construction","$11,660.00","$9,540.00",NA,NA,NA,NA,NA
"221","Burns Sand and Gravel",NA,NA,NA,"$10,635.00",NA,NA,NA
"222","Bushnell Memorial Hall","$0.00","$0.00","$52,000.00","$48,000.00","$0.00","$0.00","$0.00"
"223","B W Group,LLC",NA,NA,NA,"$4,000.00",NA,NA,NA
"224","C. Duffy Acevedo",NA,"$625.00",NA,NA,NA,NA,NA
"225","C.H. Nickerson & Co., Inc.","$21,200.00",NA,NA,NA,NA,NA,NA
"226","CAFCA",NA,NA,NA,NA,"$0.00","$0.00","$0.00"
"227","Calloway Laboratories, Inc.",NA,NA,"$13,012.00","$23,522.00","$17,391.00","$19,462.66","$5,318.46"
"228","CAMRAC, LLC","$0.00","$9,275.00","$14,828.14","$18,611.23","$15,984.26","$15,952.51","$8,242.13"
"229","Canamed, Inc.",NA,NA,NA,NA,"$10,322.27","$4,676.86","$3,722.25"
"230","Can Manufacturers Institute c/o Multistate Associates Inc.","$0.00","$0.00","$0.00","$0.00","$0.00","$0.00","$0.00"
"231","Canna Club",NA,NA,NA,"$47,589.75",NA,NA,NA
"232","Capital Power Corporation",NA,NA,NA,"$0.00","$18,658.87",NA,NA
"233","Capital Workforce Partners",NA,NA,NA,NA,NA,"$556.80",NA
"234","Capitol Region Council of Governments","$1,283.10","$1,833.00","$1,833.00","$0.00","$0.00","$0.00","$3,615.00"
"235","Capitol Region Education Council","$0.00","$0.00","$0.00","$0.00","$0.00","$0.00","$0.00"
"236","CAPSEF","$3,709.95","$3,709.93","$3,716.12","$3,706.53","$3,740.80","$4,342.66","$1,240.76"
"237","Carabetta Companies",NA,NA,NA,"$21,668.81","$0.00","$0.00",NA
"238","Carahsoft Technology Corp","$32,160.00","$2,120.00",NA,NA,NA,"$13,137.00",NA
"239","Cardinal Health",NA,NA,NA,NA,NA,NA,"$0.00"
"240","Career Resources",NA,NA,NA,NA,"$3,500.00","$1,350.00","$0.00"
"241","CareOne Services, Inc.","$0.00","$4,240.00","$13,793.31","$1,528.78",NA,NA,NA
"242","Carpenters' Local 24","$7,950.00","$2,650.00","$6,875.00",NA,NA,NA,NA
"243","Carpenters Labor Management Program","$3,000.00","$3,600.00","$0.00","$0.00","$0.00","$0.00","$0.00"
"244","Cassidian Communications, Inc",NA,"$5,300.00","$0.00","$0.00",NA,NA,NA
"245","Caterpillar c/o MultiState Associates Inc.",NA,NA,NA,NA,NA,"$0.00",NA
"246","Catholic Charities, Inc.","$0.00","$0.00","$0.00","$0.00","$0.00","$0.00","$0.00"
"247","CATRALA of CT","$0.00","$0.00","$0.00","$0.00","$9,821.50","$10,635.00","$10,885.00"
"248","CAUSA, Inc.","$1,200.00",NA,NA,NA,NA,NA,NA
"249","CBIA","$23,709.34","$37,784.00","$34,916.02","$38,861.95","$49,630.28","$54,670.46","$14,977.03"
"250","CBI Construction",NA,"$0.00",NA,NA,NA,NA,NA
"251","CBS Corporation",NA,NA,NA,NA,NA,"$0.00",NA
"252","CCJEF",NA,NA,"$6,981.94","$4,573.04",NA,"$3,231.91",NA
"253","CDM Care, LLC",NA,NA,"$8,480.00","$0.00",NA,NA,NA
"254","CDR Maguire",NA,NA,NA,NA,"$16,452.50",NA,NA
"255","CEDF Corporation",NA,NA,NA,"$0.00","$7,500.00",NA,NA
"256","Celgene Corporation",NA,NA,NA,NA,NA,"$0.00","$0.00"
"257","Center for Children's Advocacy",NA,NA,"$0.00","$0.00","$13,750.00","$350.00","$0.00"
"258","Center for Popular Democracy",NA,NA,NA,"$130.20",NA,NA,NA
"259","Center for Responsible Lending",NA,NA,NA,NA,"$0.00",NA,NA
"260","Centerplan College Square LLC","$0.00","$15,016.67","$7,958.75",NA,NA,NA,NA
"261","Centerplan Construction Company LLC",NA,"$79,500.01","$18,971.48",NA,NA,NA,NA
"262","Central Boiler, Inc.","$5,088.00",NA,NA,NA,"$3,828.60","$3,828.60","$3,190.50"
"263","Central Connecticut  Chambers of Commerce Benefit and Advertising Center","$38,633.00","$32,777.78",NA,NA,NA,NA,NA
"264","Central Connecticut Health Alliance","$13,749.99","$0.00","$1,000.00","$900.00","$64,430.00",NA,NA
"265","Central Connecticut Health Ventures, LLC",NA,NA,NA,NA,"$12,525.00",NA,NA
"266","Central Life Sciences",NA,NA,NA,"$0.00","$0.00","$0.00","$0.00"
"267","Central Regional Tourism District",NA,"$0.00","$7,750.00",NA,NA,NA,NA
"268","Centre Reinsurance (U.S.) Limited","$0.00","$0.00","$0.00","$0.00",NA,NA,NA
"269","Centris Group",NA,NA,NA,NA,NA,NA,"$8,635.00"
"270","Centurion Managed Care, Inc",NA,NA,NA,NA,NA,NA,"$9,493.09"
"271","Centurion Managed Care, Inc.",NA,NA,NA,NA,NA,"$10,822.46",NA
"272","Ceridian Corporation",NA,NA,"$0.00","$0.00",NA,NA,NA
"273","Ceruzzi Derby Redevelopment LLC","$4,770.00",NA,NA,NA,NA,NA,NA
"274","Ceruzzi Properties, LLC","$11,838.96","$11,000.00",NA,NA,NA,NA,NA
"275","CGR Medical Development, LLC",NA,NA,"$53,105.00","$58,492.50",NA,NA,NA
"276","Chamber of Commerce of Eastern Connecticut, Inc.","$13,250.03","$4,999.98","$5,000.01","$5,000.04","$5,000.04","$5,000.04","$2,500.02"
"277","Charter Oak Health Center",NA,"$52,225.00","$60,200.00","$56,000.00","$8,000.00","$6,250.00","$10,375.00"
"278","Chestnut Hill BioEnergy, LLC","$0.00",NA,NA,NA,NA,NA,NA
"279","Chick-fil-A, Inc.",NA,NA,NA,NA,NA,"$195.72","$5,702.88"
"280","Child & Family Agency of Southeastern Connecticut, Inc.","$0.00","$0.00","$0.00","$0.00","$0.00","$0.00","$0.00"
"281","Child First",NA,NA,NA,NA,NA,"$0.00","$0.00"
"282","Children's Center of Hamden","$4,725.00",NA,NA,NA,NA,NA,NA
"283","Church Street Health Management, LLC",NA,NA,"$0.00",NA,NA,NA,NA
"284","Cigar Association of America, Inc.","$8,400.00","$6,600.00","$0.00","$0.00","$0.00","$0.00","$0.00"
"285","CIGNA Corporation","$4,800.00","$4,800.00","$8,550.00","$8,500.00","$7,000.00","$12,700.00","$9,000.00"
"286","Cisco Systems, Inc.","$19,080.00",NA,NA,NA,NA,NA,NA
"287","Citigroup Management Corp.","$9,676.90","$1,799.30","$10,160.40","$10,894.19","$0.00","$946.00","$0.00"
"288","Citizens Campaign for the Environment","$0.00","$470.00","$0.00","$0.00","$0.00","$0.00","$0.00"
"289","Citizens for Economic Opportunity","$0.00","$0.00","$117.54","$0.00","$0.00",NA,NA
"290","Citizens for Fire Safety Institute","$0.00","$21,200.00","$15,000.00","$27,500.01",NA,NA,NA
"291","City Center District",NA,NA,"$1,060.00","$0.00",NA,NA,NA
"292","City of Bridgeport","$4,583.33","$0.00","$0.00","$0.00","$55,000.00","$44,000.00",NA
"293","City of Hartford","$0.00","$0.00","$0.00",NA,NA,NA,NA
"294","City of Hartford, Board of Education","$0.00",NA,NA,NA,"$0.00","$0.00","$0.00"
"295","City of Middletown","$3,600.00","$0.00",NA,NA,NA,NA,NA
"296","City of New Haven","$24,999.30","$14,583.31","$35,416.45","$22,916.48","$0.00","$0.00","$0.00"
"297","City of Stamford","$13,750.00","$7,500.00","$0.00","$0.00","$11,250.00","$4,166.00","$0.00"
"298","Civic Trust Public Lobbying Company",NA,NA,"$267.49","$92.23","$67.76","$176.91",NA
"299","CJ Westbrook Bowles, LLC","$0.00",NA,NA,NA,NA,NA,NA
"300","Clean Energy Collective LLC",NA,NA,NA,NA,NA,NA,"$0.00"
"301","Clean Power Public Inc.",NA,NA,NA,NA,"$0.00","$0.00",NA
"302","Clean Water Action","$1,883.60","$532.56","$1,317.07","$653.29","$413.61","$71.40","$0.00"
"303","ClearEdge Power, LLC",NA,NA,NA,NA,"$13,413.54","$5,868.54",NA
"304","Clearview Power, LLC","$0.00","$0.00",NA,NA,NA,"$3,261.23",NA
"305","Clifford W. Beers Guidance Clinic, Inc.",NA,"$0.00","$0.00","$0.00","$0.00","$0.00",NA
"306","Coalition CT Sportsmen","$0.00","$0.00","$0.00","$0.00","$0.00","$0.00","$0.00"
"307","Coalition for the New Economy, Inc.",NA,NA,NA,NA,"$0.00",NA,NA
"308","Coalition of Substance Abuse Treatment Programs",NA,NA,"$1,125.00","$1,500.00",NA,NA,NA
"309","Coastline Terminals of CT, Inc.",NA,NA,NA,"$11,424.67",NA,NA,NA
"310","Coca-Cola Refreshments, Inc.","$0.00","$0.00","$12,210.12","$9,172.68","$12,230.24","$12,230.24","$7,115.12"
"311","CohnReznick",NA,NA,NA,NA,NA,"$45,042.00","$8,726.25"
"312","Collaborative Center for Justice, Inc.","$0.00","$0.00","$0.00","$0.00","$0.00","$0.00","$0.00"
"313","College Board","$1,885.50","$1,500.00","$0.00","$0.00","$750.00","$1,131.23","$0.00"
"314","College of American Pathology","$0.00","$0.00",NA,NA,NA,NA,NA
"315","Colonial Life & Accident Insurance Co.","$24,609.63","$23,496.66","$51,717.00","$41,476.50","$38,817.75","$41,476.00","$10,103.25"
"316","Colt's Manufacturing Company LLC",NA,NA,NA,NA,"$0.00",NA,NA
"317","Columbia Care LLC",NA,NA,NA,NA,"$0.00","$15,952.50",NA
"318","Comcast Cable Corp.","$0.00","$0.00","$0.00","$0.00","$0.00","$1,133.64","$0.00"
"319","Commercial Foundry Company",NA,NA,NA,NA,"$0.00",NA,NA
"320","Common Cause in CT","$7,134.49","$30,668.25","$8,500.00","$5,627.25","$4,461.58","$3,651.25","$2,902.35"
"321","COMMUNICATIONS WORKERS OF AMERICA - DISTRICT ONE",NA,"$0.00",NA,NA,NA,NA,NA
"322","Community Association Institute - Connecticut","$0.00","$0.00","$0.00","$0.00","$0.00","$0.00",NA
"323","Community Financial Services Association of America c/o MultiState Associates Inc.","$0.00",NA,NA,NA,NA,NA,NA
"324","Community Health Center, Inc","$27,000.00","$27,000.00","$28,125.00","$32,200.02","$34,700.04","$26,340.02","$9,000.00"
"325","Community Health Center Association of Connecticut","$0.00","$20,417.00","$35,878.84","$35,062.50","$25,782.44","$26,877.67","$13,923.74"
"326","Community Health Network of CT","$12,650.00","$0.00","$32,570.35","$30,014.85","$0.00","$0.00","$0.00"
"327","Community Heatlh Resouces, Inc.","$0.00",NA,"$0.00","$0.00","$0.00","$19,180.64","$11,107.49"
"328","Community Medical Group",NA,NA,NA,NA,NA,NA,"$4,431.25"
"329","Community Renewal Team","$0.00","$0.00","$0.00","$0.00","$0.00","$0.00",NA
"330","Companion & Homemakers Inc.","$2,888.00","$1,218.00","$1,590.00","$1,595.00","$1,595.25","$1,595.25","$11,219.63"
"331","Compassion & Choices","$0.00","$0.00","$0.00",NA,"$0.00","$0.00","$0.00"
"332","Computer Sciences Corporation","$0.00","$0.00","$0.00","$0.00","$0.00",NA,"$0.00"
"333","Concentra Medical Centers","$38,098.02","$37,617.84","$12,600.06","$28,375.40","$15,783.00","$15,753.00","$3,190.75"
"334","Congress of CT Community Colleges","$0.00","$0.00","$0.00","$0.00","$0.00","$0.00","$0.00"
"335","CONN CASE - CT Council Admin. Special Ed","$3,975.00","$4,504.99","$4,512.44","$4,519.86","$4,519.91","$5,649.34","$2,259.96"
"336","Conn Council of Child and Adolescent Psychiatry",NA,NA,"$2,900.00","$5,476.25","$2,658.75","$5,000.00","$0.00"
"337","ConnectiCare, Inc.","$101,103.00","$55,875.00","$54,915.00","$50,040.00","$50,040.00","$50,040.00","$25,020.00"
"338","Connecticut's Beardsley Zoo",NA,NA,NA,NA,"$0.00","$0.00",NA
"339","Connecticut's Flagship Production Theaters",NA,NA,NA,"$30,666.68","$25,166.66","$25,317.50","$20,000.00"
"340","Connecticut After School Network",NA,"$0.00","$0.00","$11,000.00","$0.00","$0.00","$0.00"
"341","Connecticut Against Gun Violence","$0.00",NA,"$0.00","$0.00","$0.00","$0.00","$0.00"
"342","Connecticut Alimony Reform",NA,NA,NA,"$27,346.84",NA,NA,NA
"343","Connecticut Alliance for Subacute Care Inc","$10,060.00","$7,000.00","$9,000.00","$16,800.00","$3,000.00","$2,500.00","$1,500.00"
"344","Connecticut Alliance of Alcohol Detox Centers",NA,NA,NA,NA,"$10,500.00","$0.00",NA
"345","Connecticut Alliance of Boys & Girls Clubs, Inc.","$0.00","$0.00","$0.00","$0.00","$1,800.00","$0.00","$4,540.00"
"346","Connecticut Alliance of YMCAs",NA,NA,NA,NA,"$0.00","$0.00","$0.00"
"347","Connecticut Art Museum Consortium",NA,NA,NA,NA,"$0.00","$0.00","$0.00"
"348","Connecticut Association for Human Services","$0.00","$0.00","$24,426.67","$16,680.38","$17,816.45","$0.00","$0.00"
"349","Connecticut Association for Professional Acupuncture, Inc",NA,NA,NA,NA,NA,NA,"$0.00"
"350","Connecticut Association of Adult and Continuing Education","$0.00","$0.00","$0.00","$0.00","$0.00","$0.00","$3,459.50"
"351","Connecticut Association of Ambulatory Surgery Centers, Inc.","$0.00","$0.00","$15,922.00","$0.00","$76,901.44","$62,277.25","$0.00"
"352","Connecticut Association of Area Agencies on Aging","$0.00","$0.00","$0.00","$0.00","$2,000.00","$2,000.00",NA
"353","Connecticut Association of Athletic Directors",NA,NA,NA,"$0.00","$0.00","$0.00","$1,500.00"
"354","Connecticut Association of Centers for Independent Living","$0.00",NA,NA,NA,"$0.00","$0.00",NA
"355","Connecticut Association of Community Pharmacies","$7,993.00","$7,399.00","$7,823.00","$8,381.09","$36,899.66","$26,901.86","$7,231.80"
"356","Connecticut Association of Directors of Health","$0.00","$0.00","$0.00","$0.00","$8,175.00","$8,500.00","$4,500.00"
"357","Connecticut Association of Golf Course Superintendents",NA,"$0.00","$0.00",NA,NA,NA,NA
"358","Connecticut Association of Health Underwriters",NA,NA,"$0.00","$0.00",NA,NA,NA
"359","Connecticut Association of Home Care Registries",NA,NA,NA,"$9,000.00",NA,NA,NA
"360","Connecticut Association of Independent Schools","$0.00","$3,249.99","$2,166.66","$3,249.99","$3,500.01","$3,500.01","$0.00"
"361","Connecticut Association of Land Surveyors, Inc.","$3,277.25","$0.00",NA,NA,NA,NA,NA
"362","Connecticut Association of Licensed Private Investigators","$0.00","$600.00","$0.00","$0.00","$0.00","$0.00","$600.00"
"363","Connecticut Association of Optometrists","$18,364.84","$20,240.23","$65,580.08","$69,235.71","$69,369.96","$72,171.16","$37,074.68"
"364","Connecticut Association of Pawnbrokers","$0.00","$0.00","$0.00","$0.00","$0.00","$0.00","$0.00"
"365","Connecticut Association of Realtors, Inc.","$19,073.00","$24,961.00","$17,657.00","$20,854.00","$14,806.33","$966.65","$12,863.63"
"366","Connecticut Association of School Administrators",NA,NA,NA,NA,"$2,250.00","$8,594.65","$6,750.00"
"367","Connecticut Association of School Based Health Centers","$1,666.67","$10,000.00","$12,750.00","$12,500.00","$15,250.00","$15,000.00","$11,083.34"
"368","Connecticut Association of School Business Officials",NA,NA,NA,NA,"$0.00","$0.00","$0.00"
"369","Connecticut Association of School Psychologists","$0.00","$3,000.00","$2,000.00","$3,000.00","$1,500.00","$0.00","$0.00"
"370","Connecticut Athletic Trainers' Association","$0.00","$4,500.00","$0.00","$0.00","$0.00","$0.00","$0.00"
"371","Connecticut Automotive Retailers Association","$10,023.35","$7,516.08","$11,882.06","$7,607.86","$9,947.63","$8,426.43","$7,600.20"
"372","Connecticut Bankers Association","$53,060.55","$48,364.12","$48,003.44","$50,110.38","$40,967.16","$40,543.17","$20,681.98"
"373","Connecticut Bar Foundation","$0.00","$0.00","$0.00","$0.00",NA,NA,NA
"374","Connecticut  Beer Wholesalers Association","$42,770.45","$40,295.46","$20,147.83","$0.00","$202,187.65","$0.00","$0.00"
"375","Connecticut Benefit Brokers",NA,NA,"$0.00",NA,NA,NA,NA
"376","Connecticut Benefit Brokers, a Chapter of NAHU",NA,NA,NA,NA,"$0.00","$0.00","$0.00"
"377","Connecticut Beverage Coalition, Inc.",NA,NA,NA,"$3,988.12","$27,030.65","$24,814.92","$15,567.25"
"378","Connecticut Biodiesel Bioheat Association","$3,975.00","$1,305.01",NA,NA,NA,NA,NA
"379","Connecticut Blueprint Coalition","$1,500.00","$0.00",NA,NA,NA,NA,NA
"380","Connecticut Bowling Proprietors Assoc",NA,NA,NA,NA,"$0.00","$0.00",NA
"381","Connecticut Catholic Public Affairs Conference","$0.00","$0.00","$0.00","$0.00","$0.00","$0.00","$55,387.33"
"382","Connecticut Cemetery Association","$0.00","$18,550.00","$6,580.00","$5,849.25","$0.00","$0.00","$0.00"
"383","Connecticut Center for Advanced Technology, Inc. (CCAT)","$0.00","$0.00","$202.70","$0.00","$0.00","$0.00","$0.00"
"384","Connecticut Center for Child Development","$0.00","$4,119.44","$0.00","$0.00","$0.00","$2,125.00","$0.00"
"385","Connecticut Center for Science and Exploration","$0.00","$0.00","$0.00","$0.00",NA,NA,NA
"386","Connecticut Chapter of American Immigration Lawyers Association Inc.",NA,NA,NA,NA,NA,"$0.00","$0.00"
"387","Connecticut Chapter of the American College of Cardiology",NA,NA,NA,NA,"$0.00","$0.00","$0.00"
"388","Connecticut Chapter of the Appraisal Institute","$11,200.00","$10,647.62","$11,395.00","$10,635.00","$2,924.63","$10,635.00","$10,917.70"
"389","Connecticut Charter School Network",NA,NA,NA,"$0.00",NA,NA,NA
"390","Connecticut Child Care Association",NA,NA,NA,"$0.00","$5,254.00","$11,538.98","$4,254.00"
"391","Connecticut Coalition for Achievement Advocacy, Inc.",NA,NA,"$0.00","$0.00",NA,NA,NA
"392","Connecticut Coalition for Achievement Now Inc","$1,205.68","$11,119.28","$6,894.83","$1,705.16","$504.92","$3,737.40","$32,050.50"
"393","Connecticut Coalition for Organ and Tissue Donation, dba, Donate Life Connecticut",NA,NA,"$0.00","$510.65",NA,NA,"$0.00"
"394","Connecticut College of Emergency Physicians","$0.00","$0.00",NA,NA,NA,NA,NA
"395","Connecticut Construction Industries Association","$28,587.13","$27,591.50","$25,134.38","$30,369.33","$42,951.88","$33,270.19","$14,835.48"
"396","Connecticut Council for Divorce Mediation","$0.00","$0.00",NA,NA,NA,NA,NA
"397","Connecticut Council for Education Reform",NA,NA,"$7,802.50","$2,275.00","$3,234.60","$5,915.00","$583.00"
"398","Connecticut Council of Car Clubs","$0.00",NA,NA,NA,NA,NA,NA
"399","Connecticut Council of Family Service Agencies",NA,NA,NA,NA,NA,NA,"$0.00"
"400","Connecticut Council of Police Unions","$2,824.90","$3,324.69","$0.00","$14,180.00",NA,NA,NA
"401","Connecticut Council on Freedom of Information","$0.00","$0.00","$0.00","$0.00","$1,994.08","$1,994.04","$1,329.38"
"402","Connecticut Counseling Association","$0.00","$0.00",NA,NA,NA,NA,NA
"403","Connecticut Craft Brewers Guild",NA,NA,NA,NA,NA,"$0.00",NA
"404","Connecticut Creditor Bar Association, Inc.",NA,NA,NA,"$0.00","$0.00","$0.00","$0.00"
"405","Connecticut Creditor Rights Professional's Association","$0.00",NA,NA,NA,NA,NA,NA
"406","Connecticut Daily Newspaper Association",NA,NA,"$2,654.38","$2,658.76",NA,NA,NA
"407","Connecticut Dental Assistants Association","$0.00",NA,NA,"$0.00",NA,NA,NA
"408","Connecticut Distributors, Inc.",NA,NA,NA,NA,"$799.95","$0.00","$0.00"
"409","Connecticut Dog Federation","$0.00",NA,"$0.00","$0.00",NA,"$0.00",NA
"410","Connecticut Driving School Professionals",NA,"$1,413.34","$0.00","$0.00","$0.00","$0.00",NA
"411","Connecticut Early Childhood Alliance",NA,"$605.70","$8,011.43","$9,357.87","$5,459.24","$0.00","$0.00"
"412","Connecticut Education Association","$17,184.05","$0.00","$0.00","$0.00","$6,683.69","$4,687.78","$3,239.87"
"413","Connecticut Employees Union Independent","$0.00","$0.00","$0.00","$0.00","$0.00","$0.00","$0.00"
"414","Connecticut Energy Marketers Association","$351.00","$7,477.14","$842.85","$1,794.59","$982.77","$3,782.08","$1,179.00"
"415","Connecticut Entertainment Business Association","$0.00","$0.00","$0.00","$0.00","$0.00","$0.00","$0.00"
"416","Connecticut Environmental Council","$0.00","$0.00","$5,849.25","$0.00","$6,115.13","$6,115.13","$0.00"
"417","Connecticut Fair Housing Center","$0.00","$0.00","$0.00","$0.00","$0.00","$0.00","$0.00"
"418","Connecticut Families Against Chemical Trespass, Inc.",NA,NA,NA,NA,NA,"$0.00",NA
"419","Connecticut Farm Bureau Association","$2,162.40","$648.80","$11,741.30","$14,583.17","$9,064.14","$8,050.56","$3,029.60"
"420","Connecticut Federation of Catholic School Parents","$0.00","$0.00","$0.00","$0.00","$0.00","$0.00","$0.00"
"421","Connecticut Federation of Dog Clubs and Responsible Dog Owners, Inc.",NA,NA,NA,NA,NA,NA,"$0.00"
"422","Connecticut Film Center","$0.00","$0.00","$7,045.00","$0.00","$0.00","$0.00","$12,407.50"
"423","Connecticut Fire Marshals Association","$12,000.00","$14,500.00",NA,"$6,000.00","$9,000.00","$24,000.00","$12,000.00"
"424","Connecticut Historical Society",NA,NA,NA,NA,NA,"$10,125.00","$6,999.97"
"425","Connecticut Homemaker and Companion Assoc.",NA,NA,"$14,540.50","$14,889.00","$7,912.75","$2,127.00","$6,756.00"
"426","Connecticut Housing Coalition","$701.09","$122.18","$244.22","$613.26","$3,000.00","$0.00","$1,250.00"
"427","Connecticut IFS Cluster","$0.00","$0.00","$1,155.00","$5,616.00",NA,NA,NA
"428","Connecticut Independent Auto Glass Association, LLC",NA,NA,NA,NA,"$6,375.00","$3,001.25","$3,125.01"
"429","Connecticut Institute For Communities, Inc.","$9,772.51","$18,257.49","$19,500.00","$24,000.00","$41,872.20","$46,212.00","$18,875.29"
"430","Connecticut Interactive, LLC",NA,NA,NA,NA,"$25,524.00","$25,524.00","$22,020.00"
"431","Connecticut Judges Association",NA,NA,NA,NA,"$0.00","$0.00","$0.00"
"432","Connecticut Juvenile Justice Alliance - RYASAP","$22,872.00","$9,000.00","$0.00",NA,NA,"$514.99","$0.00"
"433","Connecticut Laborers' Political League",NA,NA,"$2,208.33","$17,787.86","$29,246.16","$29,910.87","$0.00"
"434","Connecticut Legal Services, Inc.","$14,140.85","$18,122.65","$27,653.06","$17,163.03","$8,436.80","$724.78","$425.13"
"435","Connecticut Legislative Committee of the Propane Gas Association of New England","$65,875.03","$26,720.87","$17,004.19","$109,420.66","$31,270.20","$2,658.75",NA
"436","Connecticut Lodging Association","$0.00","$0.00","$0.00","$0.00","$5,317.50","$5,317.50","$0.00"
"437","Connecticut Magistrates Association","$0.00",NA,NA,NA,NA,NA,"$0.00"
"438","Connecticut Manufactured Housing Association",NA,NA,NA,NA,"$0.00",NA,"$0.00"
"439","CONNECTICUT MARINE TRADES ASSOCIATION, INC.","$5,732.04","$5,712.04","$6,370.50","$6,381.00","$7,522.47","$7,593.36","$3,796.68"
"440","Connecticut Mortgage Association",NA,NA,NA,NA,"$0.00","$0.00","$0.00"
"441","Connecticut Municipal Electric Energy Cooperative","$0.00","$0.00","$9,270.29","$24,161.85","$40,714.25","$54,393.60","$0.00"
"442","Connecticut Music Educator Association","$0.00","$0.00","$0.00","$0.00","$0.00","$0.00","$0.00"
"443","Connecticut Naturopathic Physicians Association","$3,816.00","$2,862.00","$6,233.45","$2,977.80","$3,828.60","$5,686.52","$31,369.07"
"444","Connecticut Onsite Wastewater Association","$3,000.00",NA,"$0.00",NA,NA,NA,NA
"445","Connecticut Parents Union, Incorporated",NA,NA,NA,"$0.00",NA,NA,NA
"446","Connecticut Peer Review Organization, Inc. (d/b/a Qualidigm)",NA,NA,NA,NA,NA,"$12,000.00","$24,000.00"
"447","Connecticut Physical Therapy Association","$0.00",NA,NA,NA,"$10,952.50","$5,317.50","$0.00"
"448","Connecticut Premium Cigar Retailers Association",NA,NA,NA,NA,NA,"$0.00","$0.00"
"449","Connecticut Preservation Action","$0.00","$0.00","$0.00","$0.00","$2,658.75","$0.00","$0.00"
"450","Connecticut Prevention Network, Inc.","$0.00","$0.00","$8,480.00","$13,027.88","$0.00","$0.00","$9,539.76"
"451","Connecticut Production Coalition","$0.00","$0.00","$60.00",NA,NA,NA,NA
"452","Connecticut Professional Tennis",NA,NA,NA,"$2,500.00","$0.00",NA,NA
"453","Connecticut Property Owners Alliance Inc.",NA,NA,NA,NA,"$10,700.00","$0.00",NA
"454","Connecticut PTA",NA,NA,NA,NA,NA,"$0.00","$5,250.00"
"455","Connecticut Public Health Association, Inc.","$0.00","$0.00","$0.00","$0.00","$0.00","$0.00",NA
"456","Connecticut Public Health Association Foundation, Inc.","$0.00","$0.00",NA,NA,NA,NA,NA
"457","Connecticut Public Interest Research Group","$2,371.84","$0.00","$300.00","$0.00","$1,974.35","$930.25","$2,738.16"
"458","Connecticut Railroad Association","$0.00","$0.00","$0.00","$7,976.25","$0.00","$0.00","$0.00"
"459","Connecticut Retail Merchants Association","$0.00","$0.00","$4,363.75","$5,317.50","$6,412.75","$6,381.00","$4,785.75"
"460","Connecticut Right to Life Corporation","$0.00",NA,NA,NA,NA,NA,NA
"461","Connecticut Science Center",NA,NA,NA,NA,"$2,352.43","$7,449.11","$7,750.00"
"462","Connecticut Small Brand Council",NA,NA,NA,NA,"$2,392.88","$0.00","$0.00"
"463","Connecticut Small Employer Reinsurance Pool",NA,NA,NA,"$3,576.80",NA,NA,NA
"464","Connecticut  Society of Certified Public Accounants","$32,540.57","$56,461.64","$56,701.05","$58,039.50","$58,757.44","$56,064.55","$28,846.77"
"465","Connecticut Society of Health-Systems Pharmacists","$0.00","$0.00","$0.00","$0.00","$0.00","$0.00","$0.00"
"466","Connecticut Society of Pathologists","$0.00","$0.00",NA,NA,NA,NA,NA
"467","Connecticut Society of Perfusion, Inc.","$0.00","$4,500.00","$0.00","$0.00","$0.00","$0.00",NA
"468","Connecticut State Electrology Association",NA,NA,"$0.00",NA,NA,NA,NA
"469","Connecticut State Golf Association",NA,NA,NA,"$0.00","$0.00","$3,190.35","$0.00"
"470","Connecticut State Society of of Anesthesiologists","$0.00","$0.00","$13,287.68","$13,293.76","$13,233.45","$13,293.76","$6,847.25"
"471","Connecticut Student Loan Foundation","$0.00","$0.00",NA,NA,NA,NA,NA
"472","Connecticut Thermal-Renewable Energy Coalition (CT_REC)",NA,NA,NA,NA,"$2,127.00",NA,NA
"473","Connecticut Title Insurance Association","$3,630.00","$0.00","$3,930.00","$0.00","$0.00","$0.00","$0.00"
"474","Connecticut Trial Lawyers Association","$23,320.00","$49,192.00","$0.00","$0.00","$0.00","$52,288.75","$0.00"
"475","Connecticut Trust For Historic Preservation","$0.00","$0.00","$7,250.02","$0.00","$0.00","$0.00","$0.00"
"476","Connecticut Tutoring Alliance",NA,NA,NA,"$2,859.38",NA,NA,NA
"477","Connecticut Veterans Chamber of Commerce",NA,NA,NA,NA,NA,"$0.00","$0.00"
"478","Connecticut Veterinary Medical Association","$26,500.00","$14,575.00","$0.00","$0.00","$3,545.00","$7,988.13","$23,928.78"
"479","Connecticut Votes for Animals","$0.00","$0.00","$0.00","$0.00","$0.00","$0.00","$0.00"
"480","Connecticut Water Works Association","$31,825.00","$57,033.96","$48,686.44","$2,492.97","$22,108.33","$22,860.98","$0.00"
"481","Connecticut Women's Education and Legal Fund","$0.00","$0.00","$0.00","$0.00","$0.00","$0.00","$17,763.00"
"482","Connecticut Youth Services Association","$0.00","$0.00","$0.00","$0.00","$0.00","$0.00","$25,250.00"
"483","ConnectQuest, LLC",NA,NA,NA,NA,NA,"$2,650.00",NA
"484","Conn Hearing Aid Dispenser's Org",NA,NA,NA,"$0.00",NA,NA,NA
"485","CONNSACS","$0.00","$0.00","$0.00","$0.00","$0.00","$0.00","$0.00"
"486","Conservation Law Foundation",NA,NA,NA,NA,NA,NA,"$0.00"
"487","Conservator of the Person and Estate of Charla Nash",NA,NA,NA,"$50,000.00","$33,409.91","$10,635.00",NA
"488","Consolidated Edison Solutions, Inc.","$4,593.95","$2,870.24","$910.27","$0.00","$528.80","$0.00",NA
"489","Constellation Energy","$0.00","$640.00","$2,429.40","$1,231.00",NA,NA,NA
"490","Consumer Electronics Association c/o MultiState Associates Inc.",NA,"$0.00","$0.00","$0.00",NA,NA,NA
"491","Consumer Health Alliance","$24,760.00",NA,NA,NA,NA,NA,NA
"492","Consumer Healthcare Products Association",NA,NA,NA,NA,NA,NA,"$0.00"
"493","Consumer Specialty Products Association","$0.00","$0.00","$0.00","$0.00","$0.00","$0.00","$0.00"
"494","Consumers Union of United States, Inc. DBA Consumer Reports",NA,NA,NA,NA,"$0.00",NA,NA
"495","Coordinated Transportation Solutions, Inc.","$0.00","$4,472.22","$7,000.00","$1,685.73",NA,NA,NA
"496","Copart, Inc",NA,"$8,100.00","$7,500.00","$450.00","$4,363.12","$0.00",NA
"497","Cornell Scott-Hill Health Center",NA,NA,NA,NA,NA,"$36,375.00","$15,750.00"
"498","Corrections Corporation of America, Inc.","$9,733.00","$38,160.00","$34,980.00","$16,325.40",NA,NA,NA
"499","Costco Wholesale Corporation",NA,NA,NA,NA,"$0.00",NA,NA
"500","Council of States Attorneys",NA,NA,NA,"$0.00","$8,226.50","$7,977.00",NA
"501","Covanta Energy LLC","$27,662.34","$1,475.01","$467.41","$3,666.00","$11,208.72","$3,322.93","$556.61"
"502","Coverys",NA,NA,NA,"$0.00",NA,NA,NA
"503","Covidien","$1,061.00","$21,200.00","$0.00","$0.00","$0.00",NA,NA
"504","Cox Communications","$0.00","$0.00","$0.00","$0.00","$0.00","$0.00","$0.00"
"505","CPV Danbury",NA,NA,"$0.00","$0.00",NA,NA,NA
"506","CPV Towantic, LLC",NA,NA,NA,"$0.00","$0.00","$0.00","$0.00"
"507","Credit Union League of Connecticut","$0.00","$0.00","$13,569.33","$63,000.00","$0.00","$5,000.00","$30,000.00"
"508","Crius Energy, LLC",NA,"$0.00","$3,510.40","$0.00","$10,248.78","$443.12",NA
"509","Cross Sound Ferry Services, Inc.","$12,592.80","$8,805.42","$8,123.60","$8,595.22","$8,659.70","$16,139.17","$13,533.02"
"510","Crystal Rock LLC","$12,203.00","$10,600.00","$12,984.00","$14,200.50","$12,762.00","$11,698.50","$5,176.64"
"511","CSAA Insurance Group",NA,NA,NA,NA,NA,NA,"$0.00"
"512","CSC Holdings, LLC","$37,709.32","$102,011.00","$29,006.61","$12,243.50","$14,073.25","$29,966.10","$21,842.70"
"513","CSEA SEIU Local 2001","$0.00","$0.00","$0.00","$0.00","$0.00","$0.00","$0.00"
"514","CT Academy of Audiology","$0.00","$4,000.00","$4,000.00","$0.00","$8,100.00","$4,050.00","$2,850.00"
"515","CT Academy of Physician Assistants","$4,445.69","$3,467.61","$4,667.49","$3,909.39","$3,684.06","$3,684.07","$2,458.57"
"516","CT AFL-CIO","$0.00","$0.00","$78.69","$0.00","$0.00","$0.00","$0.00"
"517","CT Alarm & Systems Integrators Association","$0.00","$0.00","$0.00","$0.00","$0.00","$0.00","$0.00"
"518","CT Alcohol Monitoring, LLC","$1,272.00","$0.00",NA,NA,NA,NA,NA
"519","CT Apartment Association","$0.00","$0.00","$0.00","$0.00","$4,519.92","$4,519.92","$2,259.96"
"520","CT Assisted Living Assoc.","$0.00","$0.00","$0.00","$19,189.00","$0.00","$0.00","$0.00"
"521","CT Assoc. Boards of Education","$1,219.46","$0.00","$0.00","$0.00","$0.00","$0.00","$0.00"
"522","CT Assoc. Health Care Facilities",NA,NA,NA,NA,"$50,407.74","$27,387.65","$6,594.00"
"523","CT Assoc. Licensed Homes Aged","$0.00","$0.00","$0.00","$0.00","$0.00","$0.00","$0.00"
"524","CT Assoc. of Nonprofits","$14,898.00","$15,006.00","$7,903.00","$9,218.00","$6,841.00","$7,340.00","$3,190.00"
"525","CT Assoc. Public School Superintendents, Inc.","$0.00","$0.00","$0.00","$0.00","$0.00","$0.00","$8,076.28"
"526","CT Association for Behavioral Analysis",NA,NA,NA,NA,NA,"$2,288.79","$6,260.14"
"527","CT Association for Healthcare at Home","$875.61","$1,394.15","$2,856.11","$3,780.37","$8,773.62","$2,776.59","$1,655.49"
"528","CT Association for the Performing Arts","$0.00","$0.00","$0.00","$0.00","$27,500.00","$32,500.00","$15,000.00"
"529","CT Association of Assessing Officers","$0.00","$0.00","$0.00","$0.00","$0.00","$0.00","$0.00"
"530","CT Association of Healthcare Facilities","$4,410.25","$2,873.54","$13,333.06","$16,162.79",NA,NA,NA
"531","CT Association of Health Plans","$23,850.00","$0.00","$565,368.77","$303,097.54","$0.00","$0.00","$0.00"
"532","CT Association of Home Care Registries",NA,NA,"$6,982.50","$0.00","$0.00","$0.00","$3,900.00"
"533","CT Association of Land Surveyors",NA,NA,"$0.00","$0.00","$0.00","$0.00","$0.00"
"534","CT Association of Marriage & Family Therapists","$0.00","$0.00","$6,021.59","$5,760.61","$4,011.94","$6,203.73","$3,057.44"
"535","CT Association of Nurse Anesthetists","$0.00","$0.00","$0.00","$7,444.51","$7,976.25","$7,309.64","$0.00"
"536","CT Association of Plumbing, Heating & Cooling Contractors","$0.00","$0.00","$0.00","$0.00","$0.00","$0.00","$0.00"
"537","CT Association of Prosecutors","$0.00","$0.00","$0.00","$0.00","$0.00","$0.00","$0.00"
"538","CT Association of Public Insurance Adjusters",NA,NA,NA,NA,NA,"$2,164.30","$850.80"
"539","CT Association of Schools","$0.00","$0.00","$0.00","$0.00","$0.00","$0.00","$0.00"
"540","CT Association of Theatre Owners","$0.00","$0.00","$0.00","$0.00","$0.00","$0.00","$0.00"
"541","CT Attorneys Title Insurance Co.","$2,816.66","$0.00","$1,772.49","$1,772.49","$0.00","$0.00","$0.00"
"542","CT Audubon Society",NA,"$0.00","$38,660.25","$81,698.75",NA,NA,NA
"543","CT Auto Recyclers Assoc.","$0.00","$0.00","$0.00","$0.00","$2,022.50","$0.00","$0.00"
"544","CT Bar Association","$19,219.56","$0.00","$0.00","$0.00","$0.00","$0.00","$0.00"
"545","CT Benefit Brokers","$0.00","$0.00",NA,NA,NA,NA,NA
"546","CT Bingo Supply, LLC",NA,NA,"$795.00","$1,329.39","$3,190.50","$0.00",NA
"547","CT Broadcasters Assoc.","$0.00","$0.00","$750.00","$0.00","$0.00","$0.00","$0.00"
"548","CT Bus Assoc.","$0.00","$0.00","$0.00","$0.00","$0.00","$0.00","$0.00"
"549","CT Car Wash Assoc.","$0.00","$0.00","$0.00","$0.00","$0.00","$0.00","$0.00"
"550","CT Catholic Hospitals","$8,833.33","$0.00","$0.00","$0.00",NA,NA,NA
"551","CT Catholic Hospitals Council","$4,543.42","$0.00","$0.00","$0.00","$0.00","$0.00","$0.00"
"552","CT Center for Patient Safety","$0.00","$0.00","$0.00","$0.00","$0.00","$0.00","$0.00"
"553","CT Chapter National Association of Housing and Redevelopment Officials","$0.00","$0.00","$1,500.00","$294.37","$0.00","$0.00","$2,561.74"
"554","CT Chapter of the American Society of Landscape Architects","$0.00","$0.00","$0.00","$0.00","$0.00","$0.00","$0.00"
"555","CT Children's Medical Center","$182,957.98","$192,708.00","$174,041.33","$106,413.00","$62,913.00","$118,668.00","$62,844.00"
"556","CT Chiropractic Assoc.","$10,932.95","$14,577.25","$13,144.80","$13,162.80","$7,200.00","$7,200.00","$3,000.00"
"557","CT Chiropractic Council",NA,NA,NA,NA,NA,NA,"$1,595.25"
"558","CT Citizen Action Group, Inc.","$0.00","$0.00","$211.80","$907.56","$363.99","$176.45","$0.00"
"559","CT Class III CHP Organization",NA,NA,NA,"$0.00",NA,NA,NA
"560","CT Clean Air Board, LLC","$0.00","$0.00",NA,NA,NA,NA,NA
"561","CT Coalition Against Domestic Violence","$0.00","$0.00","$0.00","$0.00",NA,NA,NA
"562","CT Coalition Against Domestic Violence.",NA,NA,NA,NA,"$7,590.00","$129.80","$0.00"
"563","CT Coalition for Achievement Advocacy","$0.00","$0.00",NA,NA,NA,NA,NA
"564","CT Coalition Interior Designers","$5,300.01","$5,299.94","$3,979.38","$6,646.91","$4,772.62","$3,988.15","$1,574.51"
"565","CT Coalition of Property Owners","$0.00","$0.00","$0.00","$0.00","$0.00","$0.00","$0.00"
"566","CT Coalition of Taft Hartley Health Funds","$0.00","$0.00","$0.00","$1,418.00","$0.00","$0.00","$0.00"
"567","CT Coalition to End Homelessness","$0.00","$0.00","$0.00","$0.00","$0.00","$0.00","$0.00"
"568","CT College of Emergency Physicians","$3,120.00","$0.00","$18,839.99","$0.00","$0.00","$0.00","$0.00"
"569","CT Community Action Foundation","$0.00","$0.00","$0.00","$0.00",NA,NA,NA
"570","CT Community Care, Inc.","$0.00","$0.00","$0.00","$0.00","$0.00","$0.00","$0.00"
"571","CT Community Providers Assoc.","$31,035.70","$28,820.70","$62,148.19","$61,212.48","$39,390.49","$52,325.70","$11,687.11"
"572","CT Conference Municipalities","$8,425.00","$11,016.00","$52,852.00","$9,090.00","$3,933.00","$120.00","$0.00"
"573","CT Conference of Independent Colleges","$1,179.28","$2,585.68","$3,850.97","$3,428.07","$23,128.38","$20,064.33","$10,181.41"
"574","CT Conference United Church of Christ","$0.00","$0.00","$0.00","$0.00","$0.00","$0.00","$0.00"
"575","CT Council Family Service Agencies","$0.00","$0.00","$0.00","$0.00","$0.00","$0.00",NA
"576","CT Council of Car Clubs","$0.00","$0.00",NA,NA,NA,NA,NA
"577","CT Council of Police Unions, Council 15",NA,NA,NA,"$6,453.77",NA,"$2,658.75",NA
"578","CT Council of Small Towns","$0.00","$0.00","$40,237.85","$97,898.47","$0.00","$0.00","$0.00"
"579","CT Court Reporter's Association","$530.00",NA,NA,NA,NA,NA,NA
"580","CT Daily Newspapers Assoc.","$1,325.00","$3,017.50",NA,NA,"$0.00","$0.00","$0.00"
"581","CT Dental Hygienists' Assoc. Inc.","$3,676.63","$3,660.00","$4,020.00","$3,786.60","$3,859.20","$3,936.45","$1,987.80"
"582","CT Dermatology & Dermatologic Surgery","$0.00","$0.00","$2,900.00","$900.00","$0.00","$150.00","$150.00"
"583","CT Ear Nose and Throat Society","$150.00","$300.00","$600.00","$600.00","$0.00","$300.00","$0.00"
"584","CT Energy & Technology",NA,NA,NA,NA,NA,NA,"$0.00"
"585","CT Federation School Administrators","$0.00","$0.00","$0.00","$0.00","$1,169.85","$1,276.20","$657.15"
"586","CT Florists Assoc.","$1,300.08","$1,334.88","$1,387.93","$1,409.04","$1,174.20","$0.00",NA
"587","CT Food Assoc.","$1,448.75","$1,147.50","$109,908.42","$935.00","$2,210.00","$1,700.00","$495.00"
"588","CT Forest & Park Assoc., Inc.","$6,990.55","$2,258.37","$0.00","$0.00","$0.00","$0.00","$0.00"
"589","CT Fund for the Environment","$7,805.97","$15,980.20","$22,797.36","$49,664.01","$21,420.37","$18,394.77","$461.44"
"590","CT Funeral Directors Assoc.","$5,356.32","$5,565.00","$11,166.76","$11,521.26","$11,521.26","$18,313.61","$0.00"
"591","CT Geothermal Association",NA,NA,NA,NA,"$0.00",NA,NA
"592","CT Glass Dealers Assoc.","$2,915.01","$1,590.00","$1,592.64","$1,595.28","$804.89","$1,587.34","$797.64"
"593","CT Greenhouse Growers Association",NA,NA,NA,NA,NA,"$500.00","$1,000.00"
"594","CT Health Association for Mutual Progress, Inc.",NA,NA,NA,NA,"$0.00","$0.00","$0.00"
"595","CT Health Care Associates / AFSCME",NA,NA,NA,NA,NA,"$0.00","$0.00"
"596","CT Health Policy Project","$1,941.40","$2,030.26","$3,767.18","$1,180.64","$1,153.32","$936.10",NA
"597","CT Heating and Cooling Contractors",NA,"$7,115.00","$0.00","$0.00","$0.00","$0.00","$0.00"
"598","CT Hospice, Inc.","$0.00","$33,705.00","$54,754.15","$50,156.25","$38,003.99","$50,000.00","$25,000.00"
"599","CT Hospital Assoc.","$71,136.26","$60,595.42","$102,481.98","$83,759.20","$116,685.67","$173,229.30","$55,540.00"
"600","C Three / MedTech",NA,NA,NA,NA,"$44,667.04","$5,583.38",NA
"601","CT Humane Society","$0.00","$0.00","$0.00","$0.00","$0.00","$0.00","$13,681.06"
"602","CT Humanities Council, Inc.","$179.72","$0.00","$0.00","$0.00","$0.00","$0.00","$0.00"
"603","CTIA - The Wireless Association",NA,NA,NA,"$26,415.42","$0.00","$0.00","$0.00"
"604","CT Industrial Energy Consumers","$0.00","$0.00","$21,692.69","$43,432.80","$31,058.44","$40,324.39","$19,275.94"
"605","CT Judges Association","$0.00","$0.00","$0.00","$0.00",NA,NA,NA
"606","CT Junior Republic Assoc.","$2,000.00","$3,000.03","$3,000.00","$3,000.00","$3,000.00","$3,999.98","$2,500.02"
"607","CT League of Conservation Voters","$0.00","$0.00","$0.00","$0.00","$0.00","$0.00","$0.00"
"608","CT Legal Rights Project, Inc.","$0.00","$0.00","$0.00","$0.00","$0.00","$0.00","$54.26"
"609","CT Library Assoc.","$0.00","$0.00","$0.00","$0.00","$0.00","$0.00","$0.00"
"610","CT Local Administrators of Social Services",NA,NA,NA,NA,"$0.00",NA,NA
"611","CT Main Street Center",NA,NA,"$4,250.00","$0.00","$500.00",NA,NA
"612","Ct Manufactured Housing Assoc","$4,240.00","$3,180.00","$3,720.50","$4,252.25","$3,190.50","$4,253.50",NA
"613","CT Maritime Coalition, Inc.","$1,200.00","$1,200.00","$1,200.00","$1,200.00","$11,524.40","$12,632.20","$8,142.40"
"614","CT Medical Cannabis Council, Inc.",NA,NA,NA,NA,NA,"$4,985.15","$4,238.12"
"615","CT Medical Insurance Co.","$0.00","$0.00","$6,625.00","$0.00","$27,087.52","$26,587.52","$0.00"
"616","CT Messenger Courier Association","$0.00","$0.00","$0.00","$0.00","$0.00","$0.00","$0.00"
"617","CT Mortgage Bankers Assoc.","$0.00",NA,"$0.00","$10,635.00","$0.00","$0.00","$0.00"
"618","CT Motorcycle Riders Assoc.","$0.00","$0.00","$0.00","$0.00","$0.00","$0.00","$0.00"
"619","CT-NAELA Chapter","$6,000.00","$2,600.00","$84.80","$5,317.50","$6,944.51","$4,510.45","$2,658.75"
"620","CT Natural Gas Corp.","$0.00","$8,446.00",NA,NA,NA,NA,NA
"621","CT Network to Abolish the Death Penalty","$1,516.00","$1,442.36","$0.00","$0.00",NA,NA,NA
"622","CT Nurse Practitioner Group Inc.","$0.00","$5,000.00","$6,000.00","$3,000.00","$6,000.00","$0.00","$0.00"
"623","CT Nursery & Landscape Association",NA,NA,NA,NA,NA,NA,"$1,973.02"
"624","CT Nursery & Landscape Association, Inc.","$6,360.00","$4,240.00","$0.00","$0.00","$0.00","$1,276.20","$2,446.06"
"625","CT Nurses'  Assoc.","$0.00","$0.00","$0.00","$0.00","$0.00","$0.00","$11,666.76"
"626","CT Occupational Therapy Assoc.","$0.00","$0.00",NA,"$0.00","$0.00","$0.00","$0.00"
"627","CT Opticians Association","$0.00","$0.00",NA,NA,NA,NA,NA
"628","CT Oral Health Initiative","$0.00","$0.00","$0.00","$0.00","$0.00","$0.00","$0.00"
"629","CT Orthopaedic Society","$0.00","$0.00","$20,250.00","$20,000.00","$20,250.00","$0.00","$21,535.88"
"630","CT Package Stores Assoc.","$0.00","$0.00","$0.00","$0.00","$0.00","$0.00","$4,580.14"
"631","CT Parent Power",NA,NA,"$1,183.22","$15,683.23","$22,732.86","$0.00","$0.00"
"632","CT Partners for Balanced Growth",NA,NA,NA,"$0.00","$0.00","$0.00",NA
"633","CT Pharmaceutical Association","$0.00","$0.00","$3,763.00","$0.00","$0.00","$1,683.88","$0.00"
"634","CT Pharmacists Association Academy of Medical Marijuana Dispensaries",NA,NA,NA,NA,NA,NA,"$0.00"
"635","CT Physical Therapy Assoc.","$4,416.66","$14,165.48","$0.00","$15,952.50",NA,NA,NA
"636","CT Podiatric Medical Assoc.","$9,275.00","$11,130.00","$11,235.00","$11,166.00","$12,761.39","$12,762.00","$12,762.00"
"637","CT Police and Fire Union",NA,NA,"$0.00","$0.00","$0.00","$0.00","$0.00"
"638","CT Police Chiefs Assoc.","$0.00","$0.00","$0.00","$0.00","$0.00","$0.00","$18,861.26"
"639","CT Probate Assembly","$0.00","$0.00","$0.00","$0.00","$0.00","$0.00","$4,200.00"
"640","CT Probate Judges Assoc. for Local Courts, Inc.","$0.00","$0.00",NA,NA,NA,NA,NA
"641","CT Psychiatric Society","$0.00","$0.00","$0.00","$0.00","$0.00","$0.00","$6,558.25"
"642","CT Psychological Assoc.","$2,120.00","$0.00","$0.00","$0.00","$13,825.50","$12,760.50","$0.00"
"643","CT Public TV and Radio","$0.00","$0.00","$0.00","$59,250.00","$0.00","$0.00","$0.00"
"644","CT Racetrack Coalition","$4,280.61","$3,643.64","$0.00","$0.00","$0.00","$0.00","$0.00"
"645","CT Recreation & Parks Association","$0.00","$0.00","$0.00","$0.00","$0.00","$0.00","$0.00"
"646","CT Restaurant Assoc.","$32,896.34","$27,564.85","$32,335.00","$32,280.00","$31,905.00","$32,030.00","$15,952.50"
"647","CT School Transportation Assoc.","$9,000.00","$1,500.00","$0.00","$0.00","$0.00","$0.00","$0.00"
"648","CT Self Storage Association","$7,900.00","$3,975.00","$0.00","$0.00","$0.00","$0.00","$0.00"
"649","CT Sleep Society",NA,NA,"$0.00","$0.00",NA,NA,NA
"650","CT Society Eye Physicians","$100.00","$9,375.00","$600.00","$600.00","$0.00","$100.00","$0.00"
"651","CT Society for Respiratory Care, Inc.","$3,000.00","$3,600.00","$3,600.00","$3,900.00","$3,600.00","$3,600.00","$900.00"
"652","CT Society of Medical Assistants",NA,NA,NA,NA,NA,NA,"$0.00"
"653","CT Society of Plastic and Reconstructive Surgeons",NA,NA,"$0.00","$0.00","$33,171.34","$19,764.28","$0.00"
"654","CT Society of Radiologic Technologists","$0.00","$0.00","$0.00","$0.00","$0.00","$0.00","$0.00"
"655","CT Speech - Language-Hearing Assoc.","$0.00","$0.00","$0.00","$0.00","$0.00","$0.00","$0.00"
"656","CT State Dental Assoc.","$26,235.00","$29,537.10","$35,077.59","$39,910.70","$41,724.82","$44,028.96","$0.00"
"657","CT State Firefighters Assoc.","$0.00","$0.00","$0.00","$0.00","$0.00","$0.00","$0.00"
"658","CT State Marshals Professional Advisory Board","$0.00","$0.00",NA,NA,NA,NA,NA
"659","CT State Medical Society","$77,753.00","$90,510.00","$92,381.38","$99,923.82","$119,166.56","$110,608.86","$56,264.13"
"660","CT State Police Union","$20,074.28","$21,376.92","$22,688.78","$18,861.25","$14,209.83","$19,765.15","$10,060.52"
"661","CT Tax Collector's Assoc.","$4,800.00","$0.00","$0.00","$0.00","$0.00","$0.00",NA
"662","CT Tech. Council","$4,000.00","$8,750.00","$16,250.00","$2,250.00","$2,750.00","$2,850.00","$1,837.50"
"663","CT Ten Pin Bowling Assoc","$0.00","$0.00","$0.00","$0.00",NA,NA,NA
"664","CT Town Clerks Assoc.","$0.00","$0.00","$3,750.00","$4,250.00","$9,000.00","$4,500.00","$0.00"
"665","CT United Research Excellence, Inc.","$748.00","$132.00","$88.00","$88.00","$704.00","$616.00",NA
"666","CT Vineyard & Winery Association","$3,405.00","$3,180.00","$3,185.26","$3,190.52","$3,190.52","$3,190.56","$1,595.26"
"667","CT Voices for Children","$0.00","$0.00","$2,414.58","$10,457.70","$4,961.73","$7,479.40","$16,195.53"
"668","CT Waste Processing","$0.00","$0.00","$0.00","$0.00",NA,NA,NA
"669","CT Water Service, Inc.","$0.00","$0.00","$0.00","$0.00","$1,091.30","$2,331.01","$0.00"
"670","CT Water Well Association","$13,194.88","$23,129.41","$1,255.96","$7,683.79","$18,122.19","$14,566.27",NA
"671","CT Yankee Atomic Power Company",NA,NA,NA,NA,NA,"$0.00","$0.00"
"672","Cultural Care, Inc.",NA,NA,NA,NA,NA,NA,"$15,952.50"
"673","Custom Electronic Design & Installation Association",NA,"$81.21","$133.72",NA,NA,NA,NA
"674","CVS Health","$12,207.56","$0.00","$0.00","$0.00","$0.00","$0.00","$28,021.33"
"675","CWA Local 1298",NA,"$206.93","$0.00","$0.00","$0.00","$0.00",NA
"676","CWPM","$0.00","$0.00","$0.00","$1,772.50","$0.00","$0.00","$0.00"
"677","Cystic Fibrosis Foundation","$0.00","$0.00",NA,NA,NA,NA,NA
"678","DAI","$44,096.00",NA,NA,NA,NA,NA,NA
"679","Dakota Partners",NA,NA,NA,NA,"$0.00","$0.00","$0.00"
"680","Darden Restaurants, Inc.","$0.00","$7,066.00","$0.00","$0.00","$0.00","$0.00","$0.00"
"681","Dattco","$0.00","$0.00","$0.00","$0.00","$0.00","$0.00","$0.00"
"682","DaVita Healthcare Partners",NA,NA,NA,NA,NA,"$55,190.34",NA
"683","Day Kimball Healthcare, Inc.",NA,NA,NA,NA,"$478.92","$193.11","$193.11"
"684","Day Kimball Hospital","$0.00","$0.00","$0.00",NA,NA,NA,NA
"685","DBA International",NA,NA,NA,NA,"$1,800.00","$0.00",NA
"686","DCI Resources, LLC",NA,NA,NA,NA,NA,"$375.00","$1,250.00"
"687","Debt Resolve, Inc.",NA,NA,"$8,994.00","$0.00",NA,NA,NA
"688","DeCarlo and Doll, Inc.","$2,385.00","$1,060.00",NA,NA,NA,NA,NA
"689","DEEPWATER WIND",NA,NA,"$0.00",NA,NA,NA,NA
"690","DeHart and Darr Assoc., Inc.","$0.00","$468.00",NA,"$0.00",NA,NA,NA
"691","Deloitte Consulting LLP",NA,NA,NA,NA,NA,"$25,899.00","$22,070.40"
"692","Delta Dental of New Jersey, Inc.",NA,"$8,783.50","$15,255.00","$21,519.98","$15,952.49","$15,952.49","$7,976.25"
"693","DeMatteo Industries LLC",NA,NA,NA,"$0.00",NA,NA,NA
"694","Dental Dreams",NA,"$26,650.00",NA,NA,NA,NA,NA
"695","Derecktor Shipyards","$0.00","$269.14",NA,NA,NA,NA,NA
"696","Diageo North America, Inc.","$14,575.40","$0.00","$0.00","$0.00","$88,080.00","$86,580.00","$43,540.00"
"697","Dichello Distributors",NA,NA,NA,"$19,643.00",NA,NA,NA
"698","Dimeo Construction Company","$0.00","$0.00","$26,376.25","$23,928.75","$31,905.00","$31,905.00","$16,202.50"
"699","Direct Energy Services, LLC","$12,310.00","$798.00","$53,850.50","$26,587.51","$26,856.00","$25,524.75","$18,452.50"
"700","Direct Marketing Association",NA,NA,NA,"$0.00",NA,NA,NA
"701","DIRECTV, Inc.",NA,"$0.00","$0.00","$0.00","$0.00","$0.00","$0.00"
"702","Discount Power Inc",NA,"$0.00","$630.95","$2,584.92",NA,"$1,829.39",NA
"703","DISH Network, LLC",NA,"$0.00","$0.00","$0.00","$0.00","$0.00","$0.00"
"704","DISH Networks c/o MultiState Associates Inc.","$0.00",NA,NA,NA,NA,NA,NA
"705","Distilled Spirits Council of the US","$11,600.04","$11,600.04","$12,053.33","$12,866.89","$11,600.04","$11,600.04","$5,991.51"
"706","District 1199/SEIU Healthcare","$0.00","$0.00","$0.00","$0.00","$0.00","$0.00","$0.00"
"707","Diversified Brokerage Group Corporation",NA,"$0.00","$0.00","$0.00","$0.00","$0.00",NA
"708","Diversified Services Group, LLC",NA,NA,NA,"$0.00",NA,NA,NA
"709","DMG Studio Holdings LLC",NA,"$875.00",NA,NA,NA,NA,NA
"710","Doctor Dental",NA,"$0.00","$18,035.23","$16,620.43","$19,086.29","$11,081.01",NA
"711","Dominion","$137,424.40","$123,391.61","$121,157.00","$161,285.47","$161,865.79","$153,496.95","$48,903.00"
"712","DOMUS","$0.00","$0.00","$0.00","$0.00","$0.00","$0.00","$0.00"
"713","Drug Policy Alliance","$0.00",NA,NA,NA,NA,NA,NA
"714","DRVN Enterprises Inc.",NA,NA,NA,NA,NA,NA,"$6,631.00"
"715","Dunkin' Brands, Inc.",NA,NA,NA,NA,NA,NA,"$2,000.00"
"716","Dye House Associates LLC","$0.00",NA,NA,NA,NA,NA,NA
"717","Dynegy",NA,NA,NA,NA,NA,NA,"$0.00"
"718","Early Care and Education Consortium",NA,NA,NA,NA,NA,NA,"$2,658.75"
"719","Eastern CT Health Network/Manchester Memorial Hosp","$0.00","$0.00","$0.00","$0.00","$0.00","$0.00","$0.00"
"720","Eastern Millwrights Regional Council",NA,NA,NA,NA,NA,"$0.00","$0.00"
"721","Eastern Regional Tourism District","$0.00","$0.00","$0.00","$0.00","$0.00","$0.00","$0.00"
"722","East of the River Chambers of Commerce",NA,"$0.00","$0.00","$0.00","$0.00","$0.00","$0.00"
"723","eBay, Inc.",NA,NA,"$3,190.50","$12,762.00","$12,762.00","$12,762.00","$0.00"
"724","EBM Care, Inc",NA,NA,NA,NA,NA,NA,"$9,381.00"
"725","Educational Testing Service",NA,"$0.00","$0.00","$0.00",NA,NA,NA
"726","Education Management LLC",NA,NA,NA,"$36,621.59","$40,454.75","$28,733.71",NA
"727","eHealthConnecticut, Inc",NA,NA,NA,NA,NA,"$300.00","$600.00"
"728","Electec Inc.",NA,NA,NA,NA,"$0.00","$0.00","$0.00"
"729","Electric Boat Corp.","$936.74","$1,063.73","$0.00","$1,041.20","$0.00","$0.00","$0.00"
"730","Elevators Constructors Local 91",NA,NA,"$5,675.00","$5,317.50","$11,010.00","$10,635.00","$10,635.00"
"731","Eli Lilly & Co.","$24,173.61","$35,107.42","$18,464.00","$17,658.00","$20,236.64","$1,620.00",NA
"732","EmblemHealth",NA,"$0.00","$200.00","$0.00","$0.00","$15,952.50","$0.00"
"733","Emera, Inc.",NA,NA,NA,NA,NA,"$16,284.84","$16,474.25"
"734","End CT Blue Laws",NA,NA,NA,"$0.00",NA,NA,NA
"735","End Hunger Connecticut!","$0.00","$0.00","$0.00","$0.00","$0.00","$0.00","$0.00"
"736","Enduring Hydro, LLC",NA,NA,NA,NA,"$25,000.00",NA,NA
"737","Energy Plus Holdings",NA,"$0.00","$0.00",NA,NA,NA,NA
"738","Enhanced Capital Partners, Inc.",NA,NA,"$9,774.48","$9,571.49","$0.00","$0.00",NA
"739","Enhanced Capital Partners, LLC",NA,NA,NA,NA,NA,NA,"$0.00"
"740","Entertainment Software Association","$0.00","$539.70","$0.00",NA,"$0.00","$0.00","$0.00"
"741","Enviro Express, Inc.",NA,"$0.00",NA,NA,NA,NA,NA
"742","Environmental Management Consultants, Inc.",NA,"$0.00",NA,NA,NA,NA,NA
"743","Environmental Professionals Organization of CT","$2,120.00","$2,120.00","$2,623.50","$1,595.25","$2,127.00","$2,142.95","$1,095.40"
"744","Environmental Systems Products",NA,"$0.00",NA,NA,NA,NA,NA
"745","Environment America","$173.62","$0.00","$0.00","$0.00","$894.83","$0.00","$0.00"
"746","Environment and Human Health Inc.","$0.00","$0.00","$0.00","$15,212.50","$10,125.00","$10,000.00","$5,250.00"
"747","Epilepsy Foundation of CT, Inc.","$0.00",NA,"$0.00","$3,000.00",NA,NA,NA
"748","ePlus Technology, Inc.",NA,NA,NA,"$26,054.28",NA,NA,NA
"749","EPMJR, LLC",NA,NA,NA,NA,"$9,008.00",NA,NA
"750","Equal Access To Justice Coalition","$0.00","$0.00","$0.00","$0.00","$0.00","$0.00","$0.00"
"751","EquiPower Resources Corp.",NA,"$0.00","$1,386.00","$6,965.00","$44,667.00","$6,485.49",NA
"752","ESPN, Inc.","$66,899.00","$80,877.99","$119,950.26","$121,194.22","$130,223.61","$131,024.92","$61,415.40"
"753","Essent Healthcare of Connecticut, Inc.",NA,NA,NA,NA,"$2,472.98","$4,192.26","$2,150.00"
"754","Eversource","$10,634.05","$3,064.12","$469.70","$0.00","$0.00","$0.00","$4,556.16"
"755","Excel Bridgeport",NA,NA,NA,"$515.50",NA,NA,NA
"756","Excellence in Education National, Inc.",NA,NA,NA,NA,NA,"$14.08",NA
"757","Executive Valet Parking","$0.00","$0.00",NA,NA,NA,NA,NA
"758","Exelon Generation Company, LLC","$0.00","$0.00","$0.00","$0.00","$0.00","$0.00","$0.00"
"759","Explore Information Services","$0.00","$0.00","$0.00","$0.00","$0.00","$0.00","$0.00"
"760","Express Scripts Holding Company","$4,925.94","$5,156.25","$5,452.08","$3,441.34","$47,871.82","$52,899.32","$5,984.68"
"761","Expressway Courier & Freight LLC",NA,NA,NA,NA,"$4,386.95","$1,595.25","$750.00"
"762","Exxon Mobil Corporation","$21,099.30","$18,705.48","$14,460.55","$18,715.52","$16,864.34","$13,868.67","$5,583.40"
"763","Fairfield County Medical Association",NA,NA,NA,NA,"$3,314.16","$68.96","$2,270.65"
"764","Fairfield County Private Provider Coalition","$0.00",NA,NA,NA,NA,NA,NA
"765","FAIR HAVEN CLAM & LOBSTER CO., LLC",NA,NA,"$5,000.00","$0.00",NA,NA,NA
"766","Fairhaven Clam & Lobster LLC",NA,NA,NA,NA,NA,"$8,883.00","$0.00"
"767","FairWindCT",NA,NA,NA,"$5,567.50","$0.00","$0.00","$0.00"
"768","FaithActs for Education",NA,NA,NA,NA,NA,NA,"$129.00"
"769","Families for Excellent Schools/Coalition for Every Child",NA,NA,NA,NA,NA,NA,"$0.00"
"770","Families in Crisis",NA,NA,"$7,500.00","$4,000.00","$2,100.00","$1,000.00","$0.00"
"771","Family Care Visiting Nurse and Home Care Agency, LLC",NA,NA,NA,NA,NA,NA,"$63,810.00"
"772","Family Centered Services",NA,NA,NA,NA,"$0.00","$0.00",NA
"773","Family Centered Services of CT, Inc",NA,NA,"$2,500.00","$1,000.00",NA,"$1,000.00",NA
"774","Family Institute of Connecticut Action, Inc.","$20,506.75","$14,535.25","$3,239.50","$647.90","$0.00","$0.00","$0.00"
"775","Family ReEntry","$0.00","$0.00","$27,000.00","$1,000.00",NA,NA,NA
"776","Family Resource Center Alliance","$300.00","$0.00","$0.00","$0.00","$3,000.00","$3,000.00","$0.00"
"777","Farmers Insurance","$1,695.00","$1,507.00","$2,940.00","$1,380.00","$2,218.00","$7,590.00","$1,860.00"
"778","Fashion Jewelry Accessories Trade Association",NA,NA,NA,NA,"$0.00","$0.00","$0.00"
"779","FedEx Corporation",NA,"$0.00",NA,"$0.00",NA,NA,NA
"780","Feld Entertainment","$0.00","$0.00","$0.00","$0.00","$0.00","$0.00","$0.00"
"781","Fellowship Place, Inc.","$13,950.00","$20,000.00",NA,NA,NA,NA,NA
"782","Fiber Technologies Networks, LLC","$7,950.00","$662.50",NA,NA,NA,NA,NA
"783","Fidelity Capital Markets, a divison of National Financial Services LLC",NA,NA,NA,NA,NA,"$397.86",NA
"784","Fidelity Investments Institutional Services Company, Inc.",NA,NA,"$178.00",NA,"$204.00","$585.25",NA
"785","FieldTurf USA, Inc","$0.00","$0.00",NA,NA,NA,NA,NA
"786","FIG LLC and certain of its affiliates",NA,NA,NA,"$0.00","$0.00","$0.00",NA
"787","Fire Protection Professional Coalition",NA,NA,NA,NA,"$0.00","$23,044.97","$0.00"
"788","First American Title Insurance Company","$0.00","$0.00",NA,NA,NA,NA,NA
"789","First Data Corporation",NA,"$0.00",NA,NA,NA,NA,NA
"790","First Hartford Realty Corporation",NA,NA,NA,NA,NA,"$52,857.50","$31,905.00"
"791","First Light Power Resources, Inc.","$759.15","$0.00",NA,NA,NA,NA,NA
"792","First Niagara Bank",NA,NA,"$0.00",NA,NA,NA,NA
"793","First Technologies LLC",NA,NA,NA,NA,"$6,337.75","$0.00",NA
"794","First Town Studios",NA,"$11,000.00",NA,NA,NA,NA,NA
"795","First Transit Inc.","$16,340.00","$25,141.00","$34,277.00","$5,800.00",NA,NA,NA
"796","First Wind Energy, LLC",NA,"$0.00","$0.00",NA,NA,NA,NA
"797","Fisker Automotive",NA,NA,NA,NA,NA,NA,"$0.00"
"798","Five Corners Strategies",NA,NA,NA,NA,NA,"$6,381.00",NA
"799","Flexi-Pave of Southern New England, LLC",NA,NA,NA,"$2,500.00",NA,NA,NA
"800","Floridian Partners, LLC",NA,NA,NA,NA,NA,"$9,864.67","$14,943.59"
"801","Food Allergy Initiative","$21,200.00","$0.00",NA,NA,NA,NA,NA
"802","Food Democracy Now",NA,NA,NA,NA,"$0.00",NA,NA
"803","FORBA Dental Management","$0.00","$0.00",NA,NA,NA,NA,NA
"804","Forest City Residential","$0.00","$0.00","$0.00","$6,381.00","$0.00","$0.00",NA
"805","Forza Group LLC",NA,NA,NA,NA,NA,NA,"$15,677.01"
"806","Foundation For Fair Contracting",NA,NA,"$0.00","$1,200.00","$590.00","$996.63","$365.53"
"807","Franklin Organic Mushrooms, Inc.","$3,180.00",NA,NA,NA,NA,NA,NA
"808","Fratelli Auriana Inc.",NA,NA,NA,NA,"$0.00","$0.00",NA
"809","Freedom Foundation",NA,NA,NA,NA,"$0.00","$0.00",NA
"810","Fresenius Medical Care, NA",NA,NA,NA,NA,"$5,000.00","$27,500.00","$7,500.00"
"811","Friends of Animals Inc",NA,NA,NA,"$0.00",NA,NA,NA
"812","Friends of the Retarded of Connecticut","$2,214.80",NA,NA,NA,NA,NA,NA
"813","Frontier Communications",NA,NA,NA,NA,NA,"$0.00","$0.00"
"814","Fuel Cell Energy, Inc.","$2,703.00","$0.00","$2,756.00","$0.00","$3,350.00","$0.00","$0.00"
"815","Fusco Corporation","$76,320.00","$57,240.00","$38,160.00","$0.00",NA,NA,NA
"816","Fusion Paperboard","$45,050.00","$34,600.00","$13,263.14","$29,246.25","$10,635.00","$35,250.00",NA
"817","Futures Inc.","$1,500.00","$500.00","$0.00","$1,300.00","$650.00","$0.00","$0.00"
"818","Gaia PBM, Inc.",NA,NA,NA,NA,"$2,127.00","$20,778.00",NA
"819","Galasso Materials, LLC","$0.00",NA,NA,NA,NA,NA,NA
"820","Garde Arts Center, Inc.",NA,NA,"$10,000.00","$30,000.00",NA,"$15,000.00","$5,833.34"
"821","Garden State Financial Service Centers",NA,"$0.00","$6,360.00","$0.00",NA,NA,NA
"822","Gasoline & Automotive Service Dealer's of America, Inc.","$0.00","$0.00","$0.00","$0.00","$0.00","$0.00",NA
"823","Gateway Development East Lyme, LLC",NA,NA,NA,NA,NA,"$51,423.00","$39,118.93"
"824","Gateway Terminal","$0.00","$0.00","$0.00","$0.00","$0.00","$0.00","$0.00"
"825","Gaylord Hospital","$0.00","$0.00","$0.00","$0.00","$0.00","$0.00","$0.00"
"826","GDF-Suez FirstLight Power",NA,NA,"$0.00","$0.00","$0.00","$0.00","$0.00"
"827","GE Energy Financial Services, Inc.","$0.00","$0.00","$0.00","$0.00",NA,NA,NA
"828","GEMALTO",NA,NA,"$17,629.22","$35,095.50","$39,083.63","$6,381.00",NA
"829","Genentech Inc., a Member of the Roche Group",NA,"$0.00",NA,"$0.00","$770.00",NA,NA
"830","General Electric Company","$0.00","$0.00","$0.00","$0.00","$0.00","$0.00","$0.00"
"831","General Motors Company","$0.00","$21,200.00",NA,NA,NA,NA,NA
"832","General Motors LLC",NA,NA,"$23,893.75","$0.00","$0.00","$0.00","$0.00"
"833","Genesis HealthCare","$3,538.60","$0.00","$0.00","$0.00",NA,NA,NA
"834","Genworth Financial Inc.",NA,NA,"$0.00",NA,NA,NA,NA
"835","Gexa Energy Connecticut, LLC",NA,"$0.00",NA,NA,NA,NA,NA
"836","GGPLP Real Estate, Inc.",NA,NA,NA,NA,NA,"$0.00",NA
"837","GI Advo Opco, LLC",NA,NA,"$25,000.00","$20,000.00","$29,774.27","$27,500.00",NA
"838","GlaxoSmithKline, Inc.","$3,556.86","$4,861.20","$10,033.95","$5,219.40","$5,361.63","$5,468.00","$1,367.00"
"839","GM2 Associates, Inc.",NA,NA,NA,"$0.00","$21,270.00","$39,881.25",NA
"840","Goldman, Sachs & Co.",NA,NA,"$11,608.00",NA,NA,NA,NA
"841","Goldman Sachs Asset Management, L.P.",NA,NA,"$12,936.00","$8,610.00",NA,NA,NA
"842","Goodrich Corporation",NA,"$0.00","$0.00","$0.00",NA,NA,NA
"843","Good Start Genetics, Inc.",NA,NA,NA,NA,NA,NA,"$0.00"
"844","Goodway Technologies Corporation",NA,NA,NA,NA,NA,"$10,633.95","$32,151.85"
"845","Goodwin College, Inc.","$8,041.09","$444.00","$0.00","$0.00","$38,886.50","$37,863.37","$32,906.00"
"846","Google Inc.",NA,NA,NA,NA,NA,NA,"$700.00"
"847","GoRail",NA,NA,NA,NA,"$0.00","$0.00",NA
"848","Government and Municipal Systems, Inc.",NA,NA,"$0.00",NA,"$12,658.75","$2,500.00",NA
"849","Government Finance Officers Assoc.","$1,105.43","$655.43",NA,NA,"$0.00","$0.00",NA
"850","Government Finance Officers Association of CT",NA,NA,"$0.00","$0.00",NA,NA,NA
"851","Governor's Prevention Partnership","$0.00","$0.00","$0.00","$0.00","$0.00","$0.00","$0.00"
"852","Gr. Danbury Chamber of Commerce","$0.00","$0.00","$0.00","$0.00","$0.00","$0.00","$0.00"
"853","Gr. Hartford Arts Council","$0.00","$3,749.99",NA,NA,NA,NA,NA
"854","Grassroots Environmental Education, Inc.",NA,NA,NA,NA,NA,"$4,066.00",NA
"855","Greater Hartford Legal Aid, Inc.","$390.25","$581.95","$2,217.55","$1,188.45",NA,"$0.00","$0.00"
"856","Greater New England Minority Supplier Development Council",NA,NA,NA,"$3,795.03",NA,NA,NA
"857","Greater New Haven Chamber of Commerce","$0.00","$0.00","$0.00","$0.00","$0.00","$0.00","$3,381.98"
"858","Greater New Haven Convention & Visitors Bureau","$550.00",NA,NA,NA,NA,NA,NA
"859","Greater New Haven Water Pollution Control Authority","$24,499.13","$24,498.00","$24,498.33","$14,291.62","$4,083.33","$0.00","$0.00"
"860","GREAT POND VILLAGE LLC",NA,NA,"$25,492.50","$0.00","$38,786.00","$38,286.00","$6,067.50"
"861","Great Wolf Resorts, Inc.","$7,790.00",NA,NA,NA,NA,NA,NA
"862","Greenbelt Management LLC",NA,NA,NA,NA,"$0.00","$0.00",NA
"863","Greenskies Renewable Energy LLC",NA,"$18,550.00","$10,617.50","$10,635.00",NA,"$0.00","$0.00"
"864","Greenward Alternatives, LLC",NA,"$8,586.00",NA,NA,NA,NA,NA
"865","Grey Wall Software",NA,NA,NA,NA,"$1,964.15","$12,949.64","$3,211.94"
"866","Grocery Manufacturers of America","$0.00","$0.00","$0.00","$0.00","$6,911.69","$0.00","$0.00"
"867","Groton Utilities","$0.00","$0.00","$9,083.33","$49,999.98","$50,749.98","$58,708.31","$16,666.66"
"868","Guardian Ad Litem Services, Inc.",NA,NA,"$0.00",NA,NA,NA,NA
"869","Gus Sclafani Corp",NA,NA,NA,"$0.00",NA,NA,NA
"870","HAKS Engineering, P.C.",NA,NA,"$17,516.00","$51,048.00",NA,"$42,915.00","$26,274.00"
"871","Halden Acquisition Group, LLC","$0.00","$0.00","$0.00","$0.00","$0.00",NA,NA
"872","Hammes Company Healthcare East, LLC",NA,NA,"$9,540.00",NA,NA,NA,NA
"873","Harbor Point Development, LLC","$89,071.26","$51,940.00",NA,NA,NA,NA,NA
"874","Harbor Point Gateway","$19,080.00","$11,130.00",NA,NA,NA,NA,NA
"875","HARC, INC.","$2,792.34","$2,503.10","$624.62","$61.54",NA,NA,"$1,276.64"
"876","Hardscrabble, LLC",NA,NA,NA,NA,NA,NA,"$3,033.73"
"877","HarperCollins Publishers LLC",NA,NA,NA,NA,NA,"$2,658.74",NA
"878","Hartford County Medical Association",NA,NA,NA,NA,NA,"$0.00","$0.00"
"879","Hartford Economic Development Company","$0.00","$0.00","$22,000.00","$24,000.00","$15,000.00","$12,000.00","$6,375.00"
"880","Hartford Financial Services Group, Inc.","$85,282.00","$37,689.00","$85,017.00","$127,502.00","$127,856.30","$97,194.67","$31,393.43"
"881","Hartford Foundation for Public Giving",NA,NA,NA,NA,NA,"$2,608.00","$1,543.28"
"882","Hartford HealthCare","$132,451.96","$100,974.96","$0.00","$91,875.00","$23,125.00","$20,500.00","$10,000.00"
"883","Hartford Hockey Club, dba Whalers Sports & Entertainment",NA,NA,"$1,325.00",NA,NA,NA,NA
"884","Hartford Police Union",NA,"$0.00","$0.00","$0.00","$22,500.00","$22,500.00","$15,000.00"
"885","Hartford Stage","$0.00","$0.00",NA,NA,NA,NA,NA
"886","Harvard Pilgrim Health Care, Inc.",NA,NA,NA,NA,"$15,500.00","$18,250.00","$9,500.00"
"887","Healthcare Distribution Management Association",NA,NA,NA,"$0.00",NA,"$0.00",NA
"888","Health Net of the Northeast, Inc.","$0.00","$0.00",NA,NA,NA,NA,NA
"889","Health New England, Inc.",NA,NA,NA,NA,NA,NA,"$0.00"
"890","HealthPort c/o MultiState Associates, Inc.",NA,NA,NA,NA,NA,"$0.00","$0.00"
"891","Health Reinsurance Association","$11,925.00","$10,030.25","$5,975.76","$1,744.65",NA,NA,NA
"892","Hearth, Patio & Barbecue Association",NA,"$5,088.00","$5,838.00","$3,456.50",NA,NA,NA
"893","Hebrew Health Care","$0.00","$0.00",NA,NA,"$68,332.32","$122,998.64","$20,499.99"
"894","Hess Corporation",NA,NA,"$5,000.00","$0.00",NA,NA,NA
"895","Hewlett-Packard Company","$0.00","$0.00","$0.00","$0.00","$0.00","$0.00","$0.00"
"896","Hillcrest Educational Centers","$0.00","$0.00","$0.00","$0.00",NA,NA,NA
"897","Hispanic Health Council","$2,500.00","$2,500.00","$0.00","$0.00","$0.00",NA,NA
"898","HMS","$0.00","$0.00","$0.00","$4,573.05","$0.00","$0.00","$4,785.75"
"899","HNTB Corporation",NA,NA,NA,NA,NA,NA,"$26,587.50"
"900","Hologic, Inc.",NA,NA,NA,NA,NA,NA,"$1,813.50"
"901","Home Builders & Remodelers Association of Connecticut Inc.","$18,750.00","$15,000.00","$16,500.00","$18,000.00","$18,000.00","$18,180.00","$9,180.00"
"902","Home Care Association of America-CT Chapter",NA,NA,NA,NA,"$425.40","$0.00","$0.00"
"903","Homeopathy for CT",NA,NA,"$1,060.00","$0.00",NA,NA,NA
"904","Honda North America, Inc.","$0.00","$0.00","$0.00","$0.00","$0.00","$0.00","$0.00"
"905","Horizon Properties Group",NA,NA,NA,NA,NA,NA,"$5,317.50"
"906","Hospital Behavioral Health Alliance","$1,530.00","$0.00","$0.00","$0.00","$0.00","$0.00","$0.00"
"907","Hospital for Special Care","$38,141.06","$2,916.67","$0.00","$0.00","$3,000.00","$3,500.00","$0.00"
"908","Hospital for Special Surgery",NA,NA,NA,"$13,493.15","$40,863.20","$5,000.00",NA
"909","Housatonic Railroad Corporation","$0.00","$0.00","$0.00","$0.00",NA,NA,NA
"910","Housing Authority of the City of Stamford","$81,668.39","$27,083.30",NA,"$0.00",NA,NA,NA
"911","HQUS",NA,NA,NA,NA,"$2,671.00","$1,233.05","$1,474.87"
"912","HSBC-GR Corp.","$0.00",NA,NA,NA,NA,NA,NA
"913","Hudson Baylor Coporation",NA,NA,"$15,908.75","$0.00",NA,NA,NA
"914","Hughes Health & Rehabilitation, Inc.","$0.00",NA,NA,NA,NA,NA,NA
"915","Humane Society of the United States","$308.56","$0.00",NA,"$0.00","$95.49","$613.54","$0.00"
"916","Hybrid Insurance Group",NA,NA,NA,"$16,202.50","$5,204.38","$0.00",NA
"917","Hydro-Pharm, LLC",NA,NA,NA,"$5,539.02","$8,317.14",NA,NA
"918","Iberdrola, S.A.",NA,NA,NA,NA,NA,NA,"$0.00"
"919","IBEW Local 1228",NA,NA,NA,NA,NA,NA,"$324.12"
"920","IBM Corp.","$54,590.00","$24,857.00","$20,466.58","$18,611.25","$22,283.49","$20,472.33","$1,923.62"
"921","IGS Energy",NA,NA,NA,NA,"$0.00",NA,NA
"922","IGT",NA,NA,NA,NA,"$0.00","$0.00","$0.00"
"923","Imagineers Property Management, LLC","$0.00","$0.00","$0.00","$0.00","$0.00","$0.00","$0.00"
"924","Imaging Sciences International, Inc.",NA,"$0.00",NA,NA,NA,NA,NA
"925","IMS Health Corporation","$36,040.00","$12,985.00",NA,NA,NA,NA,NA
"926","Independent Electrical Contractors of New England","$0.00","$0.00","$0.00","$0.00","$0.00","$0.00","$0.00"
"927","Independent Insurance Agents of CT","$7,500.00","$18,000.00","$18,000.00","$18,000.00","$18,000.00","$18,000.00","$3,000.00"
"928","Indivior, PLC c/o MultiState Associates Inc.","$16,264.25","$69,552.00","$40,069.57","$17,603.00","$172.00","$0.00","$0.00"
"929","Indoor Tanning Association, Inc.",NA,"$2,283.00","$2,782.99","$3,000.00",NA,NA,NA
"930","Innovative Engineering Services, LLC",NA,NA,NA,NA,NA,NA,"$4,785.75"
"931","Institute of Scrap Recycling Industries, Inc.","$0.00","$0.00",NA,NA,NA,NA,NA
"932","Insurance Assoc. of CT","$40,675.00","$32,655.00","$34,260.00","$40,395.00","$35,240.00","$36,475.00","$2,528.00"
"933","Insurance Auto Auctions, Inc.",NA,NA,NA,NA,"$0.00",NA,NA
"934","Integrated Health Services, Inc.",NA,NA,NA,NA,"$10,000.00","$0.00","$10,000.00"
"935","InterCommunity, Inc.",NA,NA,NA,NA,NA,"$0.00","$2,000.00"
"936","International Aesthetic and Laser Association",NA,NA,NA,NA,"$0.00","$0.00",NA
"937","International Association of Healthcare Central Service Materiel Management",NA,NA,NA,"$6,060.36","$1,275.41","$7,308.35","$4,655.29"
"938","International Bottled Water Association",NA,NA,"$17,625.00","$10,471.50","$0.00","$0.00",NA
"939","International Festival of Arts & Ideas","$9,648.72","$8,173.72","$10,423.72","$10,286.55","$10,662.30","$11,183.86","$8,458.68"
"940","International Formula Council",NA,NA,NA,NA,NA,"$3,500.00",NA
"941","International Franchise Association",NA,NA,NA,NA,NA,"$0.00","$0.00"
"942","International Health,Racquet & Sportsclub Assoc","$1,139.52","$1,192.50","$1,194.10","$1,196.46","$1,329.40","$1,151.42","$797.64"
"943","International Premium Cigar & Pipe Retailers Association",NA,NA,"$0.00","$0.00","$0.00","$0.00","$0.00"
"944","International Sleep Products Association",NA,NA,"$0.00","$0.00","$1,611.15","$0.00","$0.00"
"945","International Union of Operating Engineers","$0.00","$0.00","$0.00","$0.00","$0.00",NA,NA
"946","International Union UAW","$0.00","$0.00","$0.00","$0.00","$0.00","$0.00","$0.00"
"947","Internet Coalition",NA,NA,NA,NA,NA,NA,"$0.00"
"948","inVentiv Health",NA,NA,"$0.00","$950.00",NA,NA,NA
"949","Ironworkers Locals 15 & 424","$4,275.00","$5,450.00","$4,225.00","$3,033.74","$7,976.24","$7,976.24","$8,101.24"
"950","Iroquois Gas Transmission System","$0.00","$0.00",NA,"$19,143.00","$17,547.75","$19,143.00","$9,571.50"
"951","ISO New England","$18,000.00","$20,400.00","$26,100.00","$24,600.00","$39,800.00","$44,400.00","$22,200.00"
"952","IX Group, Inc",NA,NA,NA,NA,"$0.00","$0.00",NA
"953","JCJ Architecture",NA,NA,NA,NA,NA,NA,"$4,754.00"
"954","Jefferson Radiology, P.C.",NA,NA,NA,NA,"$0.00","$0.00",NA
"955","Jeremy Fields",NA,NA,NA,NA,"$3,750.00",NA,NA
"956","Jewish Federation Assocation of CT","$0.00","$0.00","$0.00","$0.00","$0.00","$0.00","$0.00"
"957","JHM Financial Group, LLC",NA,NA,"$0.00",NA,NA,NA,NA
"958","J N Phillips Auto Glass","$3,904.00","$1,272.00",NA,NA,NA,NA,NA
"959","Joe Buff, Inc.",NA,NA,"$0.00","$0.00",NA,NA,NA
"960","Johnson & Johnson Health Care Systems",NA,NA,NA,NA,"$226.00","$226.00","$288.00"
"961","Johnson & Johnson Services, Inc.","$4,459.56","$7,375.95","$7,493.12","$7,100.53","$7,275.93","$9,108.08","$3,963.16"
"962","Jonathan Rose Companies, Inc.","$29,150.00","$29,150.00","$7,950.00",NA,NA,NA,NA
"963","Josephine Miller",NA,NA,NA,"$0.00","$0.00",NA,NA
"964","JPMorganChase","$0.00","$125.00","$0.00","$67.30","$0.00","$0.00","$0.00"
"965","Junta for Progressive Action",NA,NA,NA,NA,"$0.00","$0.00",NA
"966","Justice Resource Institute",NA,NA,NA,"$10,312.50","$27,670.51","$22,688.00","$2,624.43"
"967","K-12, Inc.",NA,NA,NA,NA,NA,NA,"$2,000.00"
"968","Kawasaki Rail Car Inc.",NA,"$4,495.00",NA,NA,NA,NA,NA
"969","Kelly Services Inc.","$0.00","$0.00","$0.00",NA,NA,NA,NA
"970","Kelyniam Global, INC.",NA,NA,NA,"$0.00",NA,NA,NA
"971","Kennedy Center, Inc.","$0.00","$0.00","$0.00","$0.00",NA,NA,NA
"972","Key Air",NA,NA,"$0.00","$0.00","$0.00","$0.00",NA
"973","Keystone Aviation Services, LLC","$38,160.00","$8,480.00",NA,NA,NA,NA,NA
"974","Kimberly-Clark Corp.","$0.00","$0.00","$0.00","$0.00","$0.00","$0.00","$0.00"
"975","Kinder Morgan Energy Partners, L.P.",NA,NA,NA,NA,NA,"$25,624.36","$16,617.19"
"976","Kleen Energy Systems","$0.00","$0.00","$0.00","$0.00","$0.00","$0.00","$0.00"
"977","Klewin Construction, Inc.",NA,NA,NA,NA,NA,"$9,023.89",NA
"978","Klingberg Comprehensive Program Services, Inc.","$10,000.00","$15,000.00","$15,500.00","$15,000.00","$15,250.00","$15,000.00","$0.00"
"979","Knights of Columbus","$0.00","$0.00","$0.00","$0.00","$0.00","$0.00","$0.00"
"980","Kofkoff Egg Farm","$26.00","$0.00","$0.00","$2,658.75","$2,658.75","$0.00","$2,658.75"
"981","Koster Keunen, Inc.",NA,NA,NA,NA,"$3,988.12","$0.00",NA
"982","KPMG LLP",NA,NA,"$118.00","$3,437.00",NA,NA,NA
"983","Krisandra Elia","$0.00",NA,NA,NA,NA,NA,NA
"984","Lake Compounce LP","$6,306.00",NA,NA,NA,NA,NA,NA
"985","Lakin Tire East, Inc.",NA,"$0.00","$0.00","$0.00","$0.00","$531.75","$0.00"
"986","Laura Kersey","$1,458.32",NA,NA,NA,NA,NA,NA
"987","Law Offices of Michael H. Agranoff","$0.00","$0.00","$0.00","$0.00","$0.00",NA,NA
"988","Lawrence & Memorial Hospital","$11,250.00","$37,500.00","$22,875.00","$24,999.96","$24,999.96","$24,999.96","$12,499.98"
"989","Laz Parking",NA,NA,NA,"$23,772.00","$13,762.00","$12,762.00","$6,756.00"
"990","LeadingAge Connecticut",NA,NA,NA,NA,"$46,698.18","$46,739.25","$32,196.20"
"991","LeadingAge Connecticut (formerly Connecticut Association of Not-for-profit Providers for the Aging)","$18,812.50","$29,230.00","$43,218.00","$33,295.00",NA,NA,NA
"992","League of Women Voters of CT","$0.00","$0.00","$17,750.00","$12,507.25","$0.00","$0.00","$0.00"
"993","Learning Ally",NA,NA,NA,NA,NA,"$0.00",NA
"994","Leeway","$6,500.00","$6,000.00",NA,NA,NA,NA,NA
"995","Leeway Inc.",NA,NA,"$3,250.00","$0.00","$0.00","$0.00","$0.00"
"996","Legal Assistance Resource Center","$2,885.70","$2,615.22","$6,920.32","$7,386.94","$5,278.35","$6,263.28","$1,565.42"
"997","Lenscrafters/Pearle Vision","$3,180.00","$15,900.00","$3,180.00","$3,190.50","$3,690.50","$3,190.50","$3,690.50"
"998","Leukemia & Lymphoma Society",NA,NA,NA,NA,NA,"$0.00","$0.00"
"999","Levine Leichtman Capital Partners, Inc.",NA,NA,"$1,550.48","$649.04",NA,NA,NA
"1000","Liberty Healthcare Corporation",NA,"$112.35",NA,NA,NA,NA,NA
"1001","Limousine Operators of CT","$848.00","$0.00","$0.00","$0.00",NA,NA,NA
"1002","Lionshare Farm Zoological LLC","$0.00","$0.00",NA,NA,NA,NA,NA
"1003","Live Nation",NA,NA,NA,"$6,511.49","$7,217.06","$7,797.70","$3,483.52"
"1004","Live Nation Entertainment",NA,NA,"$0.00","$31,905.00","$53,175.00","$47,857.50","$31,905.00"
"1005","Living Essentials, LLC c/o Lexartis",NA,NA,NA,NA,"$3,722.25","$0.00",NA
"1006","LKQ",NA,NA,"$4,782.74","$8,496.69","$14,325.50",NA,NA
"1007","LMHA Authority of Connecticut",NA,NA,NA,NA,NA,NA,"$0.00"
"1008","Local 32BJ, Service Employees International Union, AFL-CIO","$2,051.55","$0.00","$0.00","$6,451.56","$0.00","$0.00","$0.00"
"1009","Local Search Association",NA,NA,NA,NA,NA,"$0.00",NA
"1010","LogistiCare","$0.00","$100.00","$0.00",NA,NA,NA,NA
"1011","Lorillard, Inc.",NA,NA,NA,NA,"$0.00","$0.00","$0.00"
"1012","Love Makes a Family","$0.00",NA,NA,NA,NA,NA,NA
"1013","LSN Government Affairs",NA,NA,NA,"$0.00",NA,NA,NA
"1014","Luch's Consulting Engineers","$2,385.00","$1,060.00",NA,NA,NA,NA,NA
"1015","Lumber Dealers Association of CT.","$0.00","$0.00","$0.00","$0.00","$0.00","$0.00","$0.00"
"1016","Lumentus",NA,NA,NA,"$3,190.50",NA,NA,NA
"1017","Lyft Inc.",NA,NA,NA,NA,NA,"$638.10",NA
"1018","Lyman Allyn Art Museum",NA,NA,"$0.00","$0.00","$2,302.04","$2,124.96","$1,062.48"
"1019","M&R Strategic Services, Inc.",NA,NA,NA,NA,"$0.00","$0.00","$0.00"
"1020","Magellan Midstream Partners, L.P.","$0.00","$0.00",NA,NA,NA,NA,NA
"1021","Manafort Brothers, Inc.","$0.00","$0.00","$0.00","$0.00","$0.00","$0.00","$0.00"
"1022","Managed Funds Association","$0.00","$1,766.67",NA,NA,NA,NA,NA
"1023","Manufacturing Alliance of CT Inc.","$0.00","$0.00","$0.00","$0.00","$0.00","$0.00","$0.00"
"1024","March of Dimes - CT","$0.00","$0.00","$0.00","$0.00","$4,000.00","$7,623.74","$0.00"
"1025","Maritime Aquarium at Norwalk","$0.00","$0.00","$0.00","$0.00","$0.00","$0.00","$0.00"
"1026","Martha Croog LLC",NA,NA,"$6,430.00",NA,NA,NA,NA
"1027","Mashantucket Pequot Tribe/Foxwoods Resort Casino","$17,050.00","$0.00","$0.00","$0.00","$0.00","$0.00","$0.00"
"1028","Masonicare","$0.00","$6,250.00","$16,000.00","$25,000.00","$0.00","$0.00",NA
"1029","Massachusetts Municipal Wholesale Electric Company",NA,NA,NA,"$21,000.00","$13,000.00","$4,500.00",NA
"1030","Massachusetts Mutual Life Insurance Co.","$2,291.94","$7,873.93","$8,790.32","$14,863.69","$10,024.75","$2,061.73","$2,067.48"
"1031","Mattress Recycling Council",NA,NA,NA,NA,"$10,000.00","$30,000.00","$17,500.00"
"1032","Maverick Funding Corp",NA,"$27,628.91","$10,600.00",NA,NA,NA,NA
"1033","Maximus",NA,NA,"$85,470.00","$127,620.00","$127,782.63","$138,255.00","$54,238.50"
"1034","Mayors Against Illegal Guns Action Fund",NA,NA,NA,NA,"$0.00",NA,NA
"1035","McDonald's Corporation","$0.00","$0.00","$0.00","$0.00","$0.00","$0.00","$0.00"
"1036","McKesson Corporation",NA,NA,NA,NA,NA,NA,"$0.00"
"1037","MCNA Health Care Holdings, LLC",NA,NA,NA,NA,NA,NA,"$0.00"
"1038","Mead Johnson & Company, LLC; Mead Johnson Nutrition Company",NA,"$0.00","$0.00","$0.00","$0.00","$0.00","$0.00"
"1039","Mechanical Contractors Association of CT, Inc.","$0.00","$0.00","$26,500.00","$26,587.50","$26,587.50","$26,587.50","$9,571.50"
"1040","MediGrade LLC",NA,NA,"$0.00","$0.00",NA,NA,NA
"1041","MedSolutions, INC.",NA,NA,NA,NA,"$0.00","$0.00","$0.00"
"1042","MedX12, Inc.","$0.00","$0.00",NA,NA,NA,NA,NA
"1043","Memorial Sloan - Kettering Cancer Center",NA,NA,NA,NA,"$25,250.00","$84,000.00","$12,000.00"
"1044","Mental Health Connecticut, Inc.","$0.00","$921.35","$223.87","$187.68",NA,"$96.12","$0.00"
"1045","MEPT Chapel Street LLC",NA,NA,NA,NA,NA,NA,"$3,988.12"
"1046","Merck Sharp & Dohme Corp.","$23,412.00","$29,868.00","$30,853.08","$17,867.69","$35,574.86","$18,129.01","$6,847.00"
"1047","Mercy Community Health",NA,NA,"$20,750.00","$3,333.34","$7,500.00",NA,"$19,250.00"
"1048","Meridian Development Partners Southington LLC","$26,500.00","$29,150.00","$8,484.38",NA,NA,NA,NA
"1049","Merit Properties, Inc.",NA,NA,NA,"$12,762.00","$13,262.00",NA,NA
"1050","MERSCORP Holdings, Inc. c/o MultiState Associates Inc.",NA,NA,NA,"$0.00","$0.00",NA,NA
"1051","Metal Management Connecticut, Inc.","$11,321.50","$10,335.00","$10,017.00","$7,890.73",NA,NA,NA
"1052","MetroHartford Alliance","$1,080.00","$540.00","$10,468.55","$15,631.63","$18,647.76","$13,289.09","$11,991.05"
"1053","Metropolitan District Commission","$12,833.32","$0.00","$0.00","$0.00","$25,000.00","$25,000.00","$40,000.00"
"1054","Metropolitan Life Insurance","$220.00","$0.00","$0.00","$0.00","$250.00","$0.00","$0.00"
"1055","Metro Realty Group","$22,634.93",NA,NA,NA,NA,"$17,922.75","$10,869.13"
"1056","MGM Resorts International Operations, Inc.",NA,NA,NA,"$25,125.17","$46,660.30","$43,070.97","$96,700.86"
"1057","MHM Services, Inc.","$993.75","$10,931.25","$12,938.49","$11,964.48","$3,988.12","$0.00",NA
"1058","Microsoft Corp.","$0.00","$0.00","$0.00","$11,485.80","$12,358.16","$4,254.00","$0.00"
"1059","Middlesex County Chamber of Commerce",NA,"$0.00","$108.80","$0.00","$0.00","$0.00",NA
"1060","Middlesex Hospital",NA,NA,NA,NA,NA,"$32,000.00","$20,000.00"
"1061","Middlesex Mutual Assurance Company",NA,NA,"$4,140.88","$11,207.45","$2,550.02",NA,NA
"1062","MIDDLETOWN, CITY OF",NA,NA,"$0.00",NA,NA,NA,NA
"1063","Midwestern CT Council on Alcoholism, Inc.","$1,000.00","$8,000.00",NA,NA,NA,NA,NA
"1064","Milford Chamber of Commerce","$0.00","$0.00","$0.00","$0.00","$0.00","$0.00","$0.00"
"1065","Milford Power Co.","$12,983.34","$5,268.21","$0.00",NA,NA,NA,NA
"1066","Miller Companies",NA,NA,NA,NA,NA,"$12,568.63",NA
"1067","MillerCoors LLC","$0.00","$0.00","$0.00","$0.00","$0.00","$0.00","$0.00"
"1068","Ministerial Alliance Against the Digital Divide",NA,NA,NA,NA,"$0.00",NA,NA
"1069","Minor Victims of Sexual Abuse c/o Kenny, O'Keefe & Usseglio, PC",NA,"$0.00",NA,NA,NA,NA,NA
"1070","Mitchell College","$5,166.59","$7,416.63","$0.00","$0.00",NA,NA,NA
"1071","Mitchell International","$45,221.00","$34,715.64","$62,227.75","$62,288.50","$51,021.75","$65,543.50","$26,840.25"
"1072","Mitchell International, Inc.",NA,NA,"$0.00",NA,NA,NA,NA
"1073","Mohawk Mountain",NA,NA,NA,NA,NA,NA,"$1,063.50"
"1074","Mohegan Tribal Gaming Authority","$0.00","$12,550.00","$37,950.72","$0.00","$37,339.00","$30,737.50","$29,665.00"
"1075","Money Management International","$1,000.00","$0.00",NA,NA,NA,NA,NA
"1076","Monsanto",NA,NA,NA,"$0.00","$0.00","$0.00","$0.00"
"1077","Morgan Drexen",NA,NA,NA,"$6,912.75",NA,NA,NA
"1078","Motion Picture Association of America Inc.","$0.00","$0.00","$0.00","$909.82","$0.00",NA,"$70,086.33"
"1079","Motorola Solutions, Inc.",NA,NA,NA,"$0.00",NA,NA,"$21,819.00"
"1080","Motor Transport Assoc. of CT","$7,200.00","$7,800.00","$8,400.00","$13,800.00","$10,200.00","$13,200.00","$6,000.00"
"1081","Motor Vehicle Network","$2,120.00","$6,890.00",NA,NA,NA,NA,NA
"1082","MSW Associates, LLC",NA,NA,NA,"$2,252.00",NA,NA,NA
"1083","Mueller & Mueller Enterprises Inc dba United Snack Group",NA,"$0.00","$1,000.00","$0.00",NA,NA,NA
"1084","Municipal Parking Services, Inc.",NA,NA,NA,NA,NA,NA,"$5,976.25"
"1085","Murphy Road, LLC","$0.00","$0.00","$0.00","$0.00","$0.00","$0.00","$0.00"
"1086","Mutualink, Inc.",NA,NA,NA,NA,NA,"$57,429.00","$28,714.50"
"1087","MWH Americas, Inc.","$26,308.19",NA,NA,NA,NA,NA,NA
"1088","MXenergy Electric Inc.",NA,"$2,304.00","$33,421.50",NA,NA,NA,NA
"1089","My Grant Glass",NA,NA,NA,"$1,250.00",NA,NA,NA
"1090","Mylan Inc.","$0.00","$0.00","$29,170.00","$21,801.75","$6,646.85","$19,958.11","$12,871.14"
"1091","Mystic Coast and Country Travel Industry Association Inc.","$1,392.50",NA,NA,NA,NA,NA,NA
"1092","Mystic Seaport Museum, Inc.","$24,250.00","$0.00",NA,NA,NA,NA,"$0.00"
"1093","N.E. Charter Schools Network",NA,NA,NA,NA,"$0.00","$600.00","$0.00"
"1094","NAGE/International Brotherhood of Police Officers","$0.00","$0.00","$0.00","$0.00","$0.00","$0.00","$0.00"
"1095","NAIFA - Connecticut","$0.00","$0.00","$22,286.77","$4,076.74","$0.00","$26,055.84","$11,137.96"
"1096","NARAL Pro-Choice CT, Inc.","$0.00","$0.00","$0.00",NA,NA,"$5,048.00","$5,717.50"
"1097","NASW/CT","$450.00","$1,500.00","$4,080.00","$3,391.75","$2,010.00","$2,031.75","$500.00"
"1098","National Alliance Life Companies",NA,NA,"$12,797.60","$20,340.38","$2,954.76","$0.00","$0.00"
"1099","National Alliance on Mental Illness of CT","$0.00","$0.00","$0.00","$0.00","$0.00","$0.00","$0.00"
"1100","National Association of Consumer Advocates",NA,NA,NA,NA,NA,NA,"$2,500.00"
"1101","National Association of Professional Employer Organizations","$0.00",NA,NA,NA,NA,NA,NA
"1102","National Association of Vision Care Plans",NA,NA,NA,NA,NA,NA,"$0.00"
"1103","National Audubon Society","$0.00","$2,442.22","$5,925.31","$7,772.72","$7,827.45","$25,270.00","$5,372.47"
"1104","National Center for Competency Testing",NA,NA,NA,NA,NA,NA,"$0.00"
"1105","National Coalition for Safer Roads",NA,NA,"$30,000.00","$0.00",NA,NA,NA
"1106","National Electrical Contractors Assoc/Int'l. Brhd. Elect. Wrkrs","$9,348.00","$101.67","$0.00","$0.00","$142.16","$0.00","$0.00"
"1107","National Electrical Manufacturers Association c/o MultiState Associates Inc.",NA,NA,"$0.00","$0.00","$0.00","$0.00","$0.00"
"1108","National Federation of Independent Business","$0.00","$0.00","$0.00","$0.00","$0.00","$0.00","$0.00"
"1109","National Glass & Mirror, Inc.",NA,NA,NA,"$0.00",NA,NA,NA
"1110","National Marine Manufacturers Association",NA,NA,"$482.30","$584.87","$531.74","$425.40","$1,563.50"
"1111","National Multiple Sclerosis Society - Connecticut Chapter","$994.51","$1,166.12","$1,012.55","$765.81","$790.06","$3,319.82","$944.23"
"1112","National Organization for Marriage","$164,183.00",NA,NA,NA,NA,NA,NA
"1113","National Parents Organization",NA,NA,NA,NA,NA,"$0.00",NA
"1114","National Popular Vote","$0.00","$0.00","$0.00","$0.00","$0.00","$0.00",NA
"1115","National Pork Producers Council",NA,NA,NA,NA,"$0.00","$0.00","$0.00"
"1116","National Research Center for Women & Families Cancer Prevention & Treatment Fund",NA,NA,NA,"$0.00",NA,NA,NA
"1117","National Reverse Mortgage Lenders",NA,NA,NA,NA,NA,NA,"$0.00"
"1118","National Rifle Assoc.","$2,766.31",NA,"$3,060.06","$1,636.62","$0.00","$0.00","$0.00"
"1119","National Rifle Association",NA,NA,"$3,060.06",NA,NA,NA,NA
"1120","National Shooting Sports Foundation",NA,NA,"$0.00","$0.00","$0.00","$0.00","$0.00"
"1121","National Society of Genetic Counselors",NA,NA,NA,NA,NA,NA,"$0.00"
"1122","National Strategies, LLC",NA,NA,"$7,420.00","$0.00",NA,NA,"$20,750.00"
"1123","National Tobacco Company LP",NA,NA,"$0.00","$0.00",NA,NA,NA
"1124","National Waste & Recycling Association","$0.00","$0.00","$0.00","$0.00","$0.00","$0.00","$0.00"
"1125","Nationwide Insurance","$1,661.60","$2,826.24","$2,765.81","$1,855.06","$807.98","$2,857.08","$3,684.20"
"1126","Naugatuck Valley Development Corporation",NA,NA,NA,"$15,187.50",NA,NA,NA
"1127","Navigate Affordable Housing Partners, Inc.",NA,NA,NA,NA,NA,"$25,774.00",NA
"1128","Navy Mutual Aid Association",NA,NA,NA,"$0.00",NA,NA,NA
"1129","NBC Universal","$0.00","$0.00","$0.00","$0.00","$0.00","$0.00","$0.00"
"1130","NCART",NA,NA,NA,NA,"$52,500.00","$40,250.00","$20,500.00"
"1131","NCDR, LLC/Kool Smiles","$0.00","$0.00","$0.00","$0.00","$0.00","$0.00",NA
"1132","Neighborhood Music School","$5,200.00","$4,400.00","$4,800.00","$4,400.00","$4,800.00","$4,800.00","$2,000.00"
"1133","NEMED","$7,000.00","$0.00",NA,NA,NA,NA,NA
"1134","NESLA",NA,NA,NA,"$0.00","$0.00","$0.00",NA
"1135","Nestlé Waters North America Inc.",NA,NA,NA,NA,NA,NA,NA
"1136","Neutral Tandem, Inc.","$17,978.89","$7,066.66",NA,NA,NA,NA,NA
"1137","New Alliance Bank",NA,"$0.00","$0.00",NA,NA,NA,NA
"1138","New Britain EMS",NA,NA,NA,NA,NA,NA,"$0.00"
"1139","New England Cable and Telecommunications Associations Inc.","$20,342.00","$19,283.00","$19,106.25","$20,919.25","$23,439.63","$23,406.00","$16,610.00"
"1140","New England Clean Energy Council",NA,NA,NA,NA,"$0.00","$0.00",NA
"1141","New England Convenience Store Assoc.","$0.00","$1,325.00","$0.00","$1,329.38","$1,329.38","$0.00","$0.00"
"1142","New England Financial Services","$1,590.00","$0.00",NA,NA,NA,NA,NA
"1143","New England Home Care, Inc.","$0.00","$100.00","$0.00","$0.00","$6,381.00","$0.00","$0.00"
"1144","New England Laborers Labor-Management Cooperation Trust","$0.00","$0.00",NA,NA,NA,NA,NA
"1145","New England Livery Association",NA,NA,NA,NA,"$0.00","$0.00",NA
"1146","New England Motorsports Park",NA,NA,NA,"$2,366.87","$4,320.51","$3,323.42",NA
"1147","New England Power Generators Association","$4,350.00","$0.00","$892.35","$2,807.23","$185.90","$0.00","$0.00"
"1148","New England Trail Riders Association","$4,770.00","$2,649.95","$2,650.00","$2,127.00",NA,NA,"$12,448.50"
"1149","New England Wine & Spirits, Inc.",NA,NA,NA,"$0.00","$0.00",NA,NA
"1150","New Haven Board of Education","$5,000.00","$5,000.00","$0.00","$0.00","$0.00","$0.00","$0.00"
"1151","New Haven Legal Assistance Assoc.","$561.63","$0.00","$0.00","$0.00","$214.24","$5,317.97","$1,497.34"
"1152","New Opportunities, Inc.","$0.00","$0.00","$0.00","$0.00","$0.00","$0.00","$0.00"
"1153","Newtown Transload, LLC",NA,NA,"$0.00",NA,NA,NA,NA
"1154","Nexamp, Inc.",NA,NA,NA,"$6,381.00",NA,NA,NA
"1155","NexGen",NA,NA,NA,"$0.00",NA,NA,NA
"1156","NextEra Energy Power Marketing, LLC",NA,"$0.00",NA,NA,NA,NA,NA
"1157","NextHealth, LLC",NA,NA,NA,NA,NA,NA,"$9,305.61"
"1158","Next Health, LLC",NA,"$6,600.00","$0.00","$8,333.33",NA,"$5,567.48",NA
"1159","Noble Americas Energy Solutions LLC",NA,NA,NA,NA,NA,NA,"$0.00"
"1160","Noble Energy Inc.",NA,NA,NA,NA,NA,NA,"$5,583.38"
"1161","North American Power, LLC",NA,"$375.00","$630.96","$7,148.54","$5,568.86","$8,419.30",NA
"1162","North American Power and Gas",NA,NA,NA,NA,NA,"$0.00","$5,692.45"
"1163","North Central Regional Mental Health Board, Inc.",NA,NA,NA,NA,NA,NA,"$0.00"
"1164","Northeast Association of Wholesale Distributors",NA,NA,NA,NA,"$21,784.56","$7,035.00",NA
"1165","Northeast Association of Wholesalers and Distributors","$0.00","$0.00","$28,560.00","$23,865.00",NA,NA,NA
"1166","Northeast Energy Efficiency Council","$3,246.25","$2,650.00","$1,207.80","$0.00","$0.00","$0.00",NA
"1167","NORTHEAST PHARMACY SERVICE CORPORATION",NA,NA,NA,"$8,351.25","$19,143.00","$20,383.79","$12,407.44"
"1168","Northeast Rental Dealers Association",NA,NA,"$0.00","$0.00","$0.00","$0.00","$0.00"
"1169","Northeast Spa and Pool Association","$0.00","$5,300.00","$8,843.75",NA,NA,NA,NA
"1170","Northington Partners CT, Inc.","$0.00","$0.00",NA,NA,NA,NA,NA
"1171","Northland*AEG","$4,560.00","$0.00",NA,NA,NA,NA,NA
"1172","Northstar Strategies",NA,"$787.50",NA,NA,NA,NA,NA
"1173","Northwest Connecticut Convention and Visitors Bureau","$0.00","$0.00","$0.00","$0.00","$0.00","$0.00","$0.00"
"1174","Northwest CT Assoc. for the Arts, Inc",NA,"$300.00",NA,NA,NA,NA,NA
"1175","Northwest CT Chamber of Commerce","$0.00","$0.00","$0.00","$0.00","$0.00","$0.00","$0.00"
"1176","Northwest CT Public Safety Communication Center, Inc.",NA,NA,NA,NA,NA,NA,"$2,750.00"
"1177","Norwalk Hospital","$0.00","$0.00","$0.00","$0.00","$0.00","$0.00",NA
"1178","Norwalk Land Development, LLC",NA,NA,NA,NA,NA,NA,"$0.00"
"1179","Norwich Free Academy Foundation, Inc.",NA,"$30,225.00",NA,NA,NA,NA,NA
"1180","Norwich Public Utilities","$0.00","$0.00","$0.00","$0.00","$0.00","$0.00",NA
"1181","Novartis Pharmaceuticals Corporation","$0.00","$0.00","$6,610.00","$12,108.71","$3,500.00","$26,250.00","$11,600.00"
"1182","Novartis Vaccines and Diagnostics",NA,NA,NA,"$0.00",NA,NA,NA
"1183","Novo Nordisk, Inc.",NA,NA,NA,NA,NA,"$0.00","$0.00"
"1184","NPS Pharmaceuticals",NA,NA,NA,NA,"$3,522.00","$1,093.36",NA
"1185","NR Connecticut",NA,NA,NA,NA,NA,"$21,270.00","$25,738.33"
"1186","NRG Energy, Inc.","$75,436.78","$115,019.50","$111,688.57","$112,676.43","$50,822.62","$66,334.04","$28,608.65"
"1187","Nuisance Wildlife Control Operators Association of Connecticut",NA,"$0.00","$0.00","$0.00","$0.00","$0.00","$0.00"
"1188","NuPower LLC",NA,NA,NA,NA,NA,NA,"$15,952.50"
"1189","NWP Services Corporation",NA,NA,NA,NA,NA,"$7,444.50",NA
"1190","O&G Renewability, LLC","$0.00","$0.00",NA,NA,NA,NA,NA
"1191","O&GR Watertown, LLC","$1,590.00","$0.00",NA,NA,NA,NA,NA
"1192","Oak Hill","$2,448.07","$989.57","$4,207.69","$7,853.89","$4,153.98","$2,501.08","$560.07"
"1193","Oasis Legal Finance",NA,NA,NA,"$0.00",NA,NA,NA
"1194","Obagi Medical Products",NA,NA,NA,NA,NA,"$0.00",NA
"1195","OHIvey",NA,NA,NA,NA,NA,NA,"$0.00"
"1196","Omnicare of Connecticut",NA,NA,"$14,081.00","$26,305.75","$23,397.00","$25,774.00","$12,762.00"
"1197","One Call Care Management",NA,NA,NA,NA,"$10,635.00","$8,862.50","$4,963.00"
"1198","Open Communities Alliance",NA,NA,NA,NA,NA,NA,"$0.00"
"1199","Operating Engineers Union","$11,720.40","$509.00","$0.00","$0.00","$0.00","$0.00","$0.00"
"1200","Operation Fuel, Inc.","$0.00","$0.00","$0.00","$0.00","$0.00","$0.00","$0.00"
"1201","Optimus Healthcare, Inc.","$5,300.00","$5,000.00","$18,156.02",NA,"$4,250.00","$8,333.35","$3,532.66"
"1202","Oracle America, Inc.",NA,NA,"$38,716.00","$51,048.00","$49,421.00","$46,794.00","$26,024.00"
"1203","Orange Land Development LLC",NA,NA,NA,NA,"$3,200.00","$46,829.50","$700.00"
"1204","Orange Leaf Holdings LLC",NA,NA,NA,NA,NA,"$56,231.00",NA
"1205","OTB Destination, LLC",NA,NA,NA,NA,"$28,902.51",NA,NA
"1206","Otsuka Pharmaceutical Development & Commercialization",NA,NA,NA,NA,NA,"$0.00","$0.00"
"1207","Our Piece Of The Pie","$0.00","$0.00","$0.00","$0.00","$0.00","$0.00",NA
"1208","Outdoor Advertising Assoc. of CT","$0.00","$6,757.50","$3,474.09","$6,948.27","$10,422.30","$6,948.20","$0.00"
"1209","Owl Shop, LLC",NA,NA,NA,"$3,440.50","$0.00","$0.00",NA
"1210","Palace Theater","$0.00","$0.00","$0.00","$0.00","$0.00","$0.00","$0.00"
"1211","Paradigm Healthcare Development, LLC",NA,NA,"$0.00","$0.00","$0.00",NA,NA
"1212","Parfums de Coeur",NA,NA,"$27,337.50",NA,NA,NA,NA
"1213","Parsons",NA,"$11,130.00","$32,273.63","$23,108.48","$30,841.50","$29,778.00",NA
"1214","Partnership for Strong Communities","$0.00","$0.00","$0.00","$0.00","$0.00","$0.00","$0.00"
"1215","Partnership to Fight Chronic Disease",NA,NA,NA,NA,NA,NA,"$0.00"
"1216","PASCO, Incorporated",NA,NA,NA,NA,"$10,635.00",NA,NA
"1217","Pay Less Auto Glass LLC",NA,"$0.00","$2,500.00","$3,750.00",NA,NA,NA
"1218","Pay My Taxes, LLC",NA,NA,NA,"$2,500.00",NA,NA,NA
"1219","People's United Bank","$0.00","$0.00","$201.00","$0.00","$0.00","$0.00","$0.00"
"1220","Pepsico",NA,NA,"$0.00","$0.00","$0.00","$0.00","$0.00"
"1221","Pershing Square Capital Management, L.P.",NA,NA,NA,NA,"$64,843.00","$70,486.45","$30,000.00"
"1222","Pet Food Institute",NA,NA,NA,NA,NA,"$0.00",NA
"1223","Pet Industry Joint Advisory Council","$0.00","$0.00","$0.00","$0.00","$0.00","$0.00","$0.00"
"1224","Pfizer Inc.","$2,919.55","$19,422.80","$39,137.12","$29,035.85","$18,283.05","$10,907.37","$10,848.91"
"1225","Phadia US Inc, part of Thermo Fisher Scientific",NA,NA,"$7,089.00","$23,927.25","$22,332.00","$13,027.00","$2,705.40"
"1226","Pharmaceutical Research & Manufacturers of America","$17,655.00","$0.00","$0.00","$204.71","$360.38","$335.71","$47.92"
"1227","Pharmacy Choice and Access Now","$0.00",NA,"$2,055.48","$0.00",NA,"$8,508.00",NA
"1228","Phoenix Investigations",NA,NA,NA,NA,NA,NA,"$2,000.00"
"1229","Phosphorus Coalition",NA,NA,NA,"$6,250.00","$0.00","$0.00","$0.00"
"1230","Photo Marketing Association International","$0.00",NA,"$7,950.00","$2,127.00",NA,NA,NA
"1231","PhysicianOne Urgent Care",NA,NA,NA,NA,NA,NA,"$11,166.75"
"1232","Pillar Processing",NA,NA,"$0.00",NA,NA,NA,NA
"1233","Pioneer Green Energy, LLC",NA,NA,NA,NA,NA,"$7,363.21",NA
"1234","Pitney Bowes Inc.","$0.00","$0.00","$10,546.60","$0.00","$3,298.68","$6,820.81","$2,381.61"
"1235","Plainfield Renewable Energy, LLC","$11,360.00",NA,NA,NA,NA,"$36,636.25","$11,900.96"
"1236","Planned Parenthood of Southern New England","$10,153.80","$0.00","$0.00","$1,812.90","$0.00","$0.00","$0.00"
"1237","Plymouth Auto Glass, LLC",NA,"$0.00","$0.00","$0.00",NA,NA,NA
"1238","Plymouth Rock Insurance","$18,750.00","$6,250.00","$12,000.00","$12,000.00","$12,000.00","$12,000.00",NA
"1239","Point Stratford Renewal LLC",NA,NA,NA,NA,NA,"$18,076.00","$5,317.50"
"1240","POKO","$30,000.00",NA,NA,NA,NA,NA,NA
"1241","Polish National Home, Inc.",NA,NA,"$3,357.75",NA,NA,NA,NA
"1242","ponemah riverbank, llc",NA,"$27,684.01",NA,NA,NA,NA,NA
"1243","Porter & Chester Institute","$0.00","$0.00","$0.00","$0.00","$0.00","$0.00","$6,881.00"
"1244","Post University","$0.00","$0.00","$0.00","$0.00","$12,762.00","$12,762.00","$13,262.00"
"1245","Powers and Milazzo Associates LLC",NA,NA,NA,NA,NA,"$6,402.28",NA
"1246","Praxair, Inc.",NA,NA,NA,"$1,700.00","$0.00","$0.00","$0.00"
"1247","Presidio",NA,NA,NA,NA,NA,NA,"$5,317.50"
"1248","Prime Resources",NA,NA,NA,NA,"$11,666.75","$15,952.50","$4,785.75"
"1249","Prime Wellness Connecticut, LLC",NA,NA,NA,NA,"$13,293.75","$13,293.75",NA
"1250","Procter and Gamble","$4,349.97","$7,849.98","$7,600.00","$7,000.00","$7,000.00","$7,000.00","$4,000.00"
"1251","Product Management Alliance",NA,NA,NA,"$0.00",NA,NA,NA
"1252","Professional I-ACT Colon Hydrotherapy Group of Ct",NA,NA,NA,NA,"$5,872.68",NA,NA
"1253","Professional Insurance Agents of CT","$12,243.00","$13,992.00","$10,527.88","$14,038.24","$10,528.68","$12,027.90","$150.00"
"1254","Progressive Change Campaign Committee",NA,NA,NA,"$0.00",NA,NA,NA
"1255","Progressive Insurance Companies","$0.00","$2,385.00","$0.00","$0.00","$0.00","$0.00","$0.00"
"1256","ProHealth Physicians","$7,975.00","$3,180.00","$4,012.50","$2,871.45","$5,955.60","$5,317.52","$3,988.14"
"1257","Propane Gas Association of New England",NA,NA,NA,NA,NA,NA,"$2,649.78"
"1258","Property Casualty Insurers Association of America (PCI)","$625.00","$0.00","$7,249.80","$21,631.00","$35,472.32","$26,250.00","$16,982.66"
"1259","ProSelect Insurance Company","$23,740.00","$38,160.00","$25,468.00","$19,393.02","$36,690.75","$19,143.00","$9,571.50"
"1260","Prospect Medical Holdings, Inc.",NA,NA,NA,NA,NA,NA,"$0.00"
"1261","Protective Services Employees Coalition","$0.00","$0.00",NA,NA,NA,NA,NA
"1262","Prudential Financial, Inc.","$5,734.11","$2,946.88","$1,694.84","$3,873.59","$2,388.87","$2,450.27","$0.00"
"1263","Prudential Insurance Company of America",NA,NA,NA,NA,NA,"$0.00",NA
"1264","PSEG Services Corporation","$72,000.00","$72,000.00","$67,682.88","$65,284.00","$65,936.79","$73,100.00","$40,500.00"
"1265","Purdue Pharma LP","$5,749.75","$5,088.00","$5,095.00","$5,104.80","$5,079.40","$4,829.40","$3,937.40"
"1266","Quantum Biopower, LLC",NA,NA,NA,NA,NA,"$24,610.40","$7,090.00"
"1267","Quest Diagnostics, Incorporated",NA,NA,"$0.00","$0.00","$0.00","$0.00",NA
"1268","Quest Diagnostics c/o MultiState Associates Inc.",NA,NA,NA,NA,NA,NA,"$0.00"
"1269","Quest Diagnostics Incorporated","$8,846.50","$0.00",NA,NA,NA,NA,"$0.00"
"1270","Quinnipiac Chamber of Commerce","$0.00","$0.00","$0.00","$0.00","$0.00","$0.00",NA
"1271","Quinnipiac University","$0.00","$0.00","$0.00","$0.00","$0.00","$0.00","$0.00"
"1272","R & D Dynamics Corporation","$25,183.33",NA,NA,NA,NA,NA,NA
"1273","R&R Corrugated Packing Group",NA,NA,NA,NA,"$0.00",NA,NA
"1274","RAC GROUP, LLC",NA,NA,"$3,800.00","$0.00",NA,NA,NA
"1275","Radiance Medspa",NA,NA,NA,NA,NA,NA,"$0.00"
"1276","Radiological Society of CT","$15,622.80","$15,622.81","$16,314.38","$18,881.37","$19,447.69","$21,392.31","$7,130.77"
"1277","Rail America Transportation Corp.",NA,NA,"$0.00","$0.00","$0.00",NA,NA
"1278","RAI Services Company","$31,985.39","$0.00","$0.00","$0.00","$0.00","$0.00","$0.00"
"1279","RBS Greenwich Capital","$63,750.00","$63,600.00","$63,937.50","$63,810.00","$10,635.00",NA,NA
"1280","RCH Alliance",NA,NA,"$0.00","$0.00",NA,NA,NA
"1281","RCN Capital",NA,NA,NA,NA,NA,NA,"$0.00"
"1282","Read to Grow",NA,NA,NA,NA,NA,NA,"$5,250.00"
"1283","Real Art Ways",NA,NA,NA,NA,NA,NA,"$0.00"
"1284","Recording Industry Association of America","$0.00","$0.00",NA,NA,NA,NA,NA
"1285","Recreational Vehicle Industry Association c/o MultiState Associates Inc.","$0.00","$0.00","$0.00","$0.00",NA,NA,NA
"1286","Recycling Inc.",NA,NA,NA,"$0.00",NA,NA,NA
"1287","Red Bull, North America",NA,NA,NA,"$0.00","$0.00","$0.00",NA
"1288","Redflex Traffic Systems",NA,NA,"$0.00","$0.00","$0.00",NA,"$0.00"
"1289","Reed Elsevier Inc.","$0.00","$0.00","$0.00","$0.00","$17,688.73","$2,658.75","$14,043.75"
"1290","ReEnergy Holdings LLC",NA,NA,"$26,610.67","$26,589.00","$36,206.31","$32,229.65","$14,625.86"
"1291","Regional Hospice and Home Care of Western CT, Inc",NA,NA,NA,NA,"$3,600.00",NA,NA
"1292","Reinsurance Association of America",NA,NA,NA,"$0.00",NA,NA,NA
"1293","Reliance House Inc.","$0.00","$0.00","$0.00","$0.00",NA,NA,NA
"1294","Renewable Energy and Efficiency Business Association",NA,NA,NA,NA,NA,"$1,500.00","$18,750.00"
"1295","Renewable Resources Energy Solutions, Inc.",NA,NA,NA,"$10,506.00","$3,479.79",NA,NA
"1296","RENEW Northeast, Inc.",NA,NA,"$0.00","$0.00","$0.00","$0.00","$1,897.37"
"1297","Rent a Center","$0.00","$0.00",NA,NA,NA,NA,NA
"1298","RESC Alliance","$0.00","$4,775.00","$0.00","$0.00","$0.00","$0.00","$5,970.00"
"1299","ResCare, Inc. c/o MultiState Associates Inc.",NA,NA,NA,"$8,000.00",NA,NA,NA
"1300","ResCom Energy, LLC",NA,"$1,261.91","$1,261.92",NA,NA,NA,NA
"1301","reSET - Social Enterprise Trust",NA,NA,NA,NA,"$0.00","$0.00","$0.00"
"1302","Responsible Industry for a Sound Environment",NA,NA,NA,NA,NA,"$0.00",NA
"1303","Restaurant Opportunities Centers United",NA,NA,NA,NA,NA,NA,"$0.00"
"1304","Retail Energy Supply Association","$25,320.00","$23,850.00","$22,342.54","$12,271.90","$0.00","$0.00",NA
"1305","Retail Vehicle Registration, LLC",NA,NA,NA,"$5,692.50",NA,NA,NA
"1306","Richard Fichman MD PC",NA,NA,NA,NA,NA,NA,"$0.00"
"1307","Ridgewood Power Management, LLC","$5,300.00",NA,NA,NA,NA,NA,NA
"1308","Right at Home Homecare",NA,NA,NA,NA,NA,"$0.00",NA
"1309","Rivers Alliance","$0.00","$0.00","$0.00","$0.00","$0.00","$0.00","$375.00"
"1310","Rizzo Corporation",NA,NA,"$15,442.00","$25,652.00","$26,024.00","$25,524.00","$13,262.00"
"1311","ROVAC","$0.00","$0.00","$10,315.95","$0.00","$0.00","$15,952.50",NA
"1312","Rubber Manufacturers Association",NA,NA,NA,NA,NA,NA,"$0.00"
"1313","Rushford Center Inc.","$0.00","$0.00","$0.00","$0.00","$0.00","$0.00",NA
"1314","RYO Machine LLC",NA,NA,NA,"$266.00",NA,NA,NA
"1315","Sacred Heart University",NA,NA,NA,NA,NA,NA,"$0.00"
"1316","Safelite Group, Inc. (formerly Belron US Inc.)","$0.00","$0.00","$0.00","$0.00","$0.00","$0.00","$0.00"
"1317","Sagenex Labs, Inc.",NA,NA,NA,NA,NA,"$8,654.16",NA
"1318","Saint Francis Hospital & Medical Center","$24,500.00","$3,500.00","$0.00","$0.00","$131,467.66","$123,593.23","$61,258.06"
"1319","Saint Raphael Healthcare System","$4,304.00","$0.00","$347.00","$2,028.00",NA,NA,NA
"1320","Sanofi Pasteur, Inc.","$7,950.00","$7,950.00","$7,950.00","$9,305.62","$9,305.62","$2,658.75",NA
"1321","Sanofi US",NA,NA,NA,NA,NA,"$0.00",NA
"1322","Save the Children",NA,NA,NA,"$14,285.72","$12,500.00",NA,NA
"1323","Savings Bank Life Insurance","$0.00","$0.00","$0.00","$0.00","$4,500.00","$0.00","$0.00"
"1324","Schnitzer Steel Industries",NA,NA,NA,NA,"$7,500.00","$5,317.50",NA
"1325","Schochet Associates","$58,035.00","$57,240.00",NA,NA,NA,NA,NA
"1326","School Chapters, Inc.",NA,NA,NA,"$2,095.25",NA,NA,NA
"1327","SCI.X Science Studio, LLC",NA,NA,NA,NA,"$2,658.75",NA,NA
"1328","SCI - CT Funeral Services, Inc.","$29,680.00","$39,999.96","$34,511.25","$42,540.00","$46,085.00","$50,264.50","$24,999.96"
"1329","Scientific Games International, Inc.","$33,655.00","$15,900.00","$42,993.00","$20,738.25","$16,989.40","$17,308.46","$6,381.00"
"1330","Scotts Miracle-Gro Company",NA,NA,NA,"$28,328.78","$21,468.86","$26,246.84","$19,061.59"
"1331","Sea Research Foundation, Inc.","$0.00","$0.00","$0.00","$0.00","$0.00","$0.00","$0.00"
"1332","Seaside in Waterford, LLC",NA,NA,NA,NA,"$0.00","$8,226.25",NA
"1333","Sea Support","$4,240.00","$13,980.00","$8,050.00","$7,317.50","$0.00","$0.00","$0.00"
"1334","SEBAC","$0.00","$0.00","$7,455.00","$5,362.00","$20,696.20","$6,903.75","$15,067.50"
"1335","Securities Industry and Financial Markets Association","$0.00","$0.00","$0.00","$0.00","$0.00","$0.00","$0.00"
"1336","Securus Technologies Inc",NA,NA,NA,"$7,500.00",NA,NA,NA
"1337","SEIU CT State Council","$0.00","$0.00","$0.00","$14,345.00","$4,860.00","$1,275.00","$655.00"
"1338","Self-Insurance Institute of America",NA,NA,NA,NA,NA,"$0.00",NA
"1339","Seligson Properties of Norwalk","$0.00",NA,"$0.00","$49,999.99","$4,431.24","$0.00","$0.00"
"1340","Senior Care Centers of Connecticut","$0.00","$0.00","$2,304.24","$4,608.48","$0.00","$0.00",NA
"1341","Seniorlink",NA,NA,"$34,490.00","$42,540.00","$43,540.00","$35,095.50","$19,143.00"
"1342","Service Employees International Union CTW.CLC",NA,NA,"$0.00","$0.00",NA,NA,NA
"1343","ServiceMaster","$0.00","$590.00","$0.00","$0.00","$0.00","$0.00",NA
"1344","Severance Foods, Inc.","$0.00","$0.00",NA,NA,NA,"$20,847.41",NA
"1345","SG Insurance Investment Fund, LLC",NA,"$0.00",NA,NA,NA,NA,NA
"1346","Sheet Metal Workers Local Union 40",NA,NA,NA,NA,NA,NA,"$395.71"
"1347","Sheff Movement Coalition",NA,NA,"$0.00","$0.00","$0.00","$0.00","$0.00"
"1348","Shish Kebab House of Afghanistan",NA,NA,"$0.00",NA,NA,NA,NA
"1349","Shoreline Star Greyhound Park & Entertainment Comp","$0.00",NA,NA,"$1,933.65","$7,734.63","$15,113.67","$10,816.59"
"1350","Sierra Club / CT Chapter","$0.00","$0.00","$5,000.00","$0.00",NA,NA,NA
"1351","Silver Golub & Teitell, LLP","$0.00",NA,NA,NA,NA,NA,NA
"1352","Silver Hill Hospital",NA,NA,NA,NA,"$24,500.00","$78,000.00","$30,750.00"
"1353","Simpatico Software Systems, Inc",NA,NA,NA,NA,"$4,286.92",NA,NA
"1354","SimplexGrinnell LP",NA,NA,NA,"$0.00",NA,NA,NA
"1355","Sims Metal Management",NA,NA,NA,NA,"$0.00","$5,264.34","$0.00"
"1356","Ski Sundown, Inc",NA,NA,NA,NA,NA,"$0.00",NA
"1357","Slocum & Sons",NA,NA,NA,"$0.00","$0.00","$0.00","$2,658.75"
"1358","Small ManufacturersAssociation of Connecticut, Inc.","$0.00","$0.00","$0.00","$0.00","$0.00","$0.00",NA
"1359","SmartBus LIVE!",NA,"$0.00","$0.00","$0.00","$0.00","$3,722.25",NA
"1360","SMMV",NA,NA,NA,"$15,975.00","$0.00","$38,642.50",NA
"1361","SolarCity",NA,NA,NA,"$0.00","$0.00","$0.00","$0.00"
"1362","Solar Connecticut",NA,"$0.00","$1,250.00","$1,250.00",NA,NA,NA
"1363","Sound Pilots, Inc.","$1,060.00","$0.00","$0.00","$0.00",NA,NA,NA
"1364","Sound View Community Media, Inc.",NA,NA,"$0.00","$0.00","$0.00","$0.00","$0.00"
"1365","South Central Connecticut Regional Water Authority","$10,409.30","$15,776.29","$12,198.21","$7,067.25","$0.00",NA,"$0.00"
"1366","Southeastern CT Resource Recovery Authority (SCRRA)",NA,NA,"$10,000.00","$0.00","$6,000.00","$4,500.00","$6,000.00"
"1367","Southern CT Gas Co.","$0.00","$496.00",NA,NA,NA,NA,NA
"1368","Southern New England Law Libraries Association",NA,NA,"$0.00",NA,NA,NA,NA
"1369","Space Fitters",NA,NA,NA,NA,"$2,105.73","$33,723.60","$10,321.51"
"1370","Spectra Energy Transmission","$0.00","$0.00","$0.00","$0.00","$0.00","$0.00","$0.00"
"1371","Spectral Systems Inc.",NA,NA,NA,NA,NA,"$15,953.00",NA
"1372","SPI/APBA",NA,NA,NA,NA,NA,NA,"$0.00"
"1373","Sportech, Inc.",NA,"$4,306.23","$18,253.54","$21,602.54","$22,599.36","$24,470.44","$7,533.39"
"1374","Sporting Goods Properties c/o E.I. DuPont de Nemours & Company","$0.00","$0.00","$5,572.86","$9,571.48","$0.00","$0.00","$0.00"
"1375","Sprint United Management Company","$0.00","$0.00","$0.00","$0.00","$0.00","$0.00","$0.00"
"1376","St. Mary's Hospital","$0.00","$0.00","$0.00","$0.00","$0.00","$0.00","$0.00"
"1377","Stamford Chamber of Commerce","$2,000.00","$2,000.00","$45,000.00",NA,"$0.00",NA,NA
"1378","Stamford Health System","$4,000.00","$0.00","$0.00","$0.00","$48,000.00","$48,000.00","$0.00"
"1379","Standard Parking Corporation",NA,"$19,937.50","$29,150.00","$0.00",NA,NA,NA
"1380","starion energy",NA,"$5,823.95","$1,656.24","$2,629.22","$5,613.03","$5,817.48","$0.00"
"1381","Starwood Hotels & Resorts Worldwide, Inc.",NA,"$0.00","$0.00","$0.00","$0.00",NA,"$0.00"
"1382","State Farm Insurance","$109,180.00","$40,942.50","$43,308.03","$56,682.72","$60,714.60","$59,536.29","$30,901.81"
"1383","State Five Industrial Park, Inc.","$1,060.00","$0.00",NA,NA,NA,NA,NA
"1384","State Funded Child Development Centers Director's Forum",NA,NA,"$0.00","$0.00",NA,NA,"$0.00"
"1385","State Funded Child Development Directors's Forum",NA,NA,NA,NA,"$6,000.00","$0.00",NA
"1386","StayWell Health Center",NA,NA,NA,NA,"$13,875.00",NA,NA
"1387","Sterling House Community Center, Inc",NA,NA,NA,NA,NA,"$0.00",NA
"1388","Stonehenge Capital Company, LLC","$14,804.09","$13,249.92","$13,518.12","$13,293.60","$19,142.98","$19,268.00","$9,571.50"
"1389","Stop & Shop Supermarket Co.","$0.00",NA,NA,NA,NA,NA,NA
"1390","Stout & Company, LLC agent for Mary Lee Stiegler",NA,"$5,000.00",NA,NA,NA,NA,NA
"1391","StudentsFirst Connecticut",NA,NA,NA,"$0.00","$446.12","$1,027.70",NA
"1392","Students for Education Reform",NA,NA,NA,"$0.00","$0.00",NA,NA
"1393","Suburban Propane L.P.",NA,"$5,802.08","$3,507.19","$0.00",NA,NA,NA
"1394","Summit Corporation of America",NA,NA,NA,NA,NA,"$8,351.28","$1,563.50"
"1395","SunEdison LLC","$6,635.19","$6,464.00","$0.00","$0.00","$2,666.00","$2,342.84","$1,527.80"
"1396","Sunovion Pharmaceuticals Inc",NA,"$337.80","$287.00","$0.00","$0.00","$0.00","$0.00"
"1397","SunPower Corporation",NA,NA,NA,NA,"$0.00",NA,NA
"1398","Sunrun Inc.",NA,NA,NA,"$7,089.50","$15,468.38","$2,625.00",NA
"1399","Supported Living Group",NA,NA,NA,"$22,333.50","$26,555.75","$0.00",NA
"1400","Sweetwater Partners",NA,NA,NA,"$0.00","$0.00",NA,NA
"1401","Swisher International, Inc.","$0.00","$0.00","$0.00","$0.00","$0.00","$0.00","$0.00"
"1402","Swiss Re Life & Health America Inc",NA,NA,NA,"$0.00",NA,NA,NA
"1403","Synagro-WWT, Inc",NA,NA,NA,NA,NA,NA,"$0.00"
"1404","T&A Screw Products, Inc",NA,NA,NA,"$5,000.00",NA,NA,NA
"1405","TAC Air","$1,749.00",NA,NA,NA,NA,NA,NA
"1406","Takeda Pharmaceuticals America","$2,188.09","$1,966.79","$0.00",NA,NA,NA,NA
"1407","Talecris Biotherapeutics, Inc., a wholly owned subsidiary of Grifols, Inc. c/o MultiState Associates Inc.",NA,NA,"$0.00",NA,NA,NA,NA
"1408","Tamarack Energy, Inc.","$0.00",NA,NA,NA,NA,NA,NA
"1409","Tamara Dietrich",NA,NA,NA,NA,"$0.00",NA,NA
"1410","Target Corporation",NA,NA,NA,NA,NA,"$0.00",NA
"1411","TAROB, LLC",NA,NA,NA,"$14,500.00","$25,242.25","$29,621.25","$16,702.50"
"1412","Taser International","$0.00","$0.00","$0.00","$0.00",NA,NA,NA
"1413","Taxi and Livery Council of CT",NA,NA,NA,NA,NA,"$1,499.99","$2,500.00"
"1414","Taxicabs & Livery Council of Connecticut, Inc.",NA,NA,NA,"$5,200.00","$4,190.62","$4,388.76",NA
"1415","TCORS Law Firm",NA,"$530.00","$2,919.36","$3,988.10","$6,381.00","$3,722.25","$3,222.25"
"1416","TD Bank US Holding Company",NA,NA,"$328.19","$0.00",NA,"$29.09","$0.00"
"1417","Teach For America - Connecticut","$0.00",NA,NA,"$750.00","$0.00","$329.28","$529.58"
"1418","Teladoc",NA,NA,NA,NA,NA,NA,"$0.00"
"1419","Telaid Industries, Inc",NA,NA,NA,NA,"$14,680.00","$7,090.00",NA
"1420","TEN COMPANIES, INC.","$0.00",NA,NA,NA,NA,NA,NA
"1421","Tenet Healthcare Corporation",NA,NA,NA,NA,NA,"$51,761.82","$27,554.00"
"1422","Tennessee Gas Pipeline Corporation","$0.00","$0.00","$55,860.00","$14,840.00",NA,NA,NA
"1423","Tesla Motors, Inc.",NA,NA,NA,NA,NA,NA,"$5,317.50"
"1424","Thames Valley Council for Community Action, Inc.","$0.00","$0.00","$0.00","$0.00","$0.00","$0.00","$0.00"
"1425","The Arc Connecticut",NA,NA,"$6,701.00","$1,140.75","$8,538.26","$15,778.09","$10,080.80"
"1426","The Arc of Connecticut","$17,451.69","$8,334.44",NA,NA,NA,NA,NA
"1427","The Association of Magazine Media",NA,NA,NA,"$0.00",NA,NA,NA
"1428","The Bank of New York Mellon","$10,000.00",NA,NA,NA,NA,NA,NA
"1429","The Barnum Museum Foundation, Inc",NA,NA,NA,NA,NA,NA,"$0.00"
"1430","The Borough of Fenwick",NA,NA,NA,NA,NA,NA,"$0.00"
"1431","The Business Council of Fairfield County","$3,990.00","$4,440.00","$0.00","$0.00","$0.00","$0.00","$0.00"
"1432","The C.G. Tate Company",NA,NA,NA,NA,NA,NA,"$6,249.95"
"1433","The Campaign for the Fair Sentencing of Youth",NA,NA,NA,NA,NA,NA,"$120.19"
"1434","The Carabetta Companies",NA,NA,NA,NA,NA,"$0.00","$42,540.00"
"1435","The Carpet and Rug Institute",NA,NA,NA,NA,"$0.00","$5,317.50","$0.00"
"1436","The Children's Center of Hamden",NA,NA,NA,NA,NA,"$4,125.00","$750.00"
"1437","The Children's Law Center of CT, Inc.",NA,NA,NA,NA,NA,NA,"$0.00"
"1438","The Children's League of Connecticut","$7,155.00","$7,419.96","$7,432.26","$7,444.56","$7,544.45","$8,439.02","$3,102.01"
"1439","The Coalition for Connecticut Family Court Reform",NA,NA,NA,NA,NA,NA,"$0.00"
"1440","The Coalition of Connecticut Shellfishers",NA,NA,NA,NA,"$7,976.26","$22,958.48",NA
"1441","The Conference of Churches",NA,NA,NA,"$5,250.00",NA,NA,NA
"1442","The Connecticut Chapter of the American Planners Association",NA,NA,"$0.00","$0.00","$0.00","$0.00","$0.00"
"1443","The Connecticut State Police, Inc",NA,NA,NA,"$27,916.91",NA,NA,NA
"1444","The Connection Fund, Inc.","$4,952.00","$0.00","$0.00","$0.00","$0.00","$7,500.00","$0.00"
"1445","The Conservation Campaign","$0.00","$0.00","$0.00","$0.00","$8,226.26","$0.00","$0.00"
"1446","The CT Pepsi Bottlers Association, Inc.","$0.00","$0.00",NA,NA,NA,NA,NA
"1447","The Diaper Bank","$255.67",NA,NA,NA,NA,NA,"$0.00"
"1448","The Discovery Museum","$0.00","$0.00","$0.00","$0.00","$0.00","$0.00","$0.00"
"1449","The Freemont Group, LLS",NA,NA,"$0.00",NA,NA,NA,NA
"1450","The Fremont Group, LLC",NA,"$0.00",NA,NA,NA,NA,NA
"1451","The Greater Hartford Rideshare Corporation","$6,500.00","$6,500.00","$3,000.00",NA,NA,NA,NA
"1452","The Hartford Club",NA,NA,"$0.00","$0.00",NA,NA,NA
"1453","The Haven Group LLC",NA,NA,NA,NA,NA,NA,"$7,976.25"
"1454","The Home and School Association of the Southbury Training School, Incorporated",NA,NA,NA,NA,"$0.00",NA,NA
"1455","The Jackson Laboratory",NA,NA,NA,"$24,812.50","$46,930.60","$67,874.72","$58,561.65"
"1456","The Jewish Home for the Elderly","$0.00","$0.00","$2,500.00","$7,500.00","$10,000.00","$20,000.00","$1,000.00"
"1457","The Learning Clinic, Inc.",NA,NA,NA,"$9,166.65","$11,458.32","$11,458.27","$7,791.62"
"1458","The Mary Wade Home Inc.","$0.00",NA,NA,NA,NA,NA,NA
"1459","The Money Services Roundtable","$0.00",NA,NA,NA,NA,NA,NA
"1460","The Morganti Group, Inc.",NA,"$53,000.00","$79,837.50","$63,810.00","$37,837.50","$43,222.50","$16,202.50"
"1461","The Nature Consevancy","$6,532.39","$4,150.63","$0.00","$0.00","$0.00","$0.00","$0.00"
"1462","The Open Hearth, Inc.","$7,500.00",NA,NA,NA,NA,NA,NA
"1463","The Personal Care Products Council",NA,NA,NA,NA,NA,NA,"$0.00"
"1464","The Pew Charitable Trusts",NA,NA,NA,"$0.00",NA,"$0.00","$0.00"
"1465","The Phoenix Companies, Inc.","$0.00","$0.00",NA,"$0.00","$0.00","$0.00","$0.00"
"1466","The Prudential Insurance Company of America",NA,NA,NA,NA,"$0.00",NA,NA
"1467","Theraplant, LLC",NA,NA,NA,NA,"$25,305.00","$55,304.00","$2,765.20"
"1468","Therap Services",NA,NA,NA,NA,"$8,225.21","$4,353.58","$1,144.26"
"1469","Therapy Unlimited",NA,NA,NA,NA,"$10,071.50",NA,NA
"1470","The Reardon Law Firm, PC",NA,NA,NA,NA,NA,NA,"$0.00"
"1471","The Riverhouse at Goodspeed Station, Inc.",NA,NA,"$10,710.00","$750.00",NA,NA,NA
"1472","Thermaxx, LLC",NA,"$1,100.00",NA,NA,NA,NA,NA
"1473","The Stonington Institute","$3,180.00",NA,NA,NA,NA,NA,NA
"1474","The Travelers Companies, Inc. and Subsidiaries","$18,606.20","$23,584.00","$30,395.40","$26,769.21","$25,972.80","$24,226.80","$12,113.40"
"1475","The Trust for Public Land",NA,NA,NA,"$0.00","$393.75","$1,235.00","$0.00"
"1476","The Village at Shantok Hill Development, LLC",NA,NA,NA,NA,NA,"$0.00",NA
"1477","The Village for Families & Children, Inc.",NA,NA,NA,NA,NA,"$0.00","$0.00"
"1478","The Washington Center for Internships & Academic Seminars","$3,930.00","$0.00",NA,NA,NA,NA,NA
"1479","The Westerly Hospital",NA,"$10,150.00",NA,NA,NA,NA,NA
"1480","The Whalley Glass Co.",NA,NA,"$0.00","$0.00",NA,NA,NA
"1481","Third Sector New England, Inc. (TSNE)",NA,NA,"$9,750.00",NA,NA,NA,NA
"1482","Thomas Hooker Brewing Company",NA,NA,NA,"$9,821.00","$13,512.00","$12,762.00","$7,131.00"
"1483","Thomson Reuters dba Thompson West","$30,000.00","$47,500.00",NA,"$15,000.00","$45,000.00","$31,200.00","$15,000.00"
"1484","Three M (3M) Corporation","$22,450.00","$25,575.00","$8,750.00","$11,160.00","$23,660.00","$47,800.00","$24,720.00"
"1485","Thunder In The Deep The Movie, LLC",NA,NA,"$0.00",NA,NA,NA,NA
"1486","TIAA-CREF",NA,NA,NA,NA,"$0.00","$5,317.50","$0.00"
"1487","Ticketmaster","$4,468.60","$0.00",NA,NA,NA,NA,NA
"1488","TicketNetwork","$817.30","$2,535.56","$57,350.20","$50,956.04","$32,337.09","$33,536.25","$1,047.33"
"1489","Tilcon, Inc.","$0.00","$0.00","$0.00","$0.00","$0.00","$0.00","$0.00"
"1490","T-Mobile USA, Inc.","$29,322.00","$31,694.00","$37,585.70","$8,247.83","$0.00","$0.00","$0.00"
"1491","Toad's Place","$0.00",NA,NA,NA,NA,NA,NA
"1492","Toads Place",NA,NA,NA,NA,NA,"$0.00",NA
"1493","Tomra","$0.00","$0.00","$28,861.00","$15,896.92",NA,NA,NA
"1494","Total Wine & More",NA,NA,NA,NA,"$0.00","$0.00","$1,063.50"
"1495","Towers Watson",NA,NA,NA,NA,NA,NA,"$11,432.63"
"1496","Towing & Recovery Professionals of Connecticut","$0.00","$4,557.98","$2,620.00",NA,"$4,608.48","$2,373.11","$0.00"
"1497","Town of Middlebury",NA,"$10,600.00",NA,NA,NA,NA,NA
"1498","Town of Oxford","$0.00","$0.00",NA,NA,NA,NA,NA
"1499","Town of Vernon","$3,833.34","$0.00",NA,NA,NA,NA,NA
"1500","Town of Wallingford",NA,NA,NA,NA,NA,"$0.00","$0.00"
"1501","Toy Industry Association","$6,360.00","$6,801.69","$4,866.33","$4,873.99","$5,833.26","$3,886.72","$2,907.78"
"1502","TransCanada Power Marketing, LTD.",NA,"$0.00","$19,111.50",NA,"$5,662.27","$6,000.00","$0.00"
"1503","Transmission Developers Inc.",NA,"$0.00",NA,NA,NA,NA,NA
"1504","Transportation General","$66,073.39","$48,141.64","$48,583.30","$53,618.07","$48,743.70","$53,618.07","$20,383.73"
"1505","Travel Tech: The Travel Technology Association",NA,NA,"$0.00","$0.00","$0.00","$0.00","$0.00"
"1506","Trilegiant",NA,NA,NA,"$0.00",NA,NA,NA
"1507","Trilegiant Corporation","$0.00","$0.00",NA,NA,NA,NA,NA
"1508","Tripolymer, Inc.",NA,NA,"$0.00","$0.00","$0.00","$0.00",NA
"1509","Tri-S Environmental Services, Inc.","$8,612.50","$7,287.50","$7,296.26","$8,638.78","$9,140.97","$7,311.59","$3,988.14"
"1510","Trout Brook Realty Advisors, Inc",NA,NA,NA,NA,NA,NA,"$0.00"
"1511","Trout Unlimited - CT Council","$1,020.00",NA,NA,NA,NA,NA,NA
"1512","TrueBlue Inc.",NA,NA,"$0.00",NA,"$0.00",NA,NA
"1513","TruGreen",NA,NA,NA,NA,NA,"$0.00","$0.00"
"1514","TV Management Associates, LLC",NA,NA,NA,NA,"$0.00","$0.00",NA
"1515","Twain Financial Services",NA,NA,NA,NA,NA,NA,"$5,317.50"
"1516","Twenty-First Century Fox, Inc.","$16,260.00","$25,685.00","$53,765.35","$49,233.30","$21,879.67","$10,660.27","$3,350.00"
"1517","Tyco Integrated Security LLC",NA,NA,NA,"$12,887.00","$4,254.00",NA,NA
"1518","U.S. Fireworks Safety Commission c/o MultiState Associates Inc.","$0.00","$0.00","$0.00","$0.00",NA,NA,NA
"1519","Uber Technologies",NA,NA,NA,NA,NA,"$0.00","$6,000.00"
"1520","UCB, Inc.",NA,"$0.00",NA,NA,NA,NA,NA
"1521","UConn Advocates","$0.00",NA,NA,NA,"$0.00",NA,"$0.00"
"1522","UConn Foundation",NA,NA,NA,NA,NA,NA,"$640.00"
"1523","UCPEA","$0.00","$0.00","$0.00",NA,NA,NA,NA
"1524","UIL Holdings Corporation",NA,NA,"$0.00","$0.00","$0.00","$0.00","$2,971.20"
"1525","Uniformed Professional Fire Fighters","$9,699.00","$0.00","$49,257.71","$10,127.01",NA,NA,NA
"1526","United Association Pipe Fitters Local 777","$27,560.00","$55,060.00","$5,300.00","$16,661.50","$34,032.00","$34,032.00","$19,674.72"
"1527","United Association Sprinkler Fitters Local Union 676","$0.00","$0.00",NA,NA,NA,NA,NA
"1528","United Community & Family Services, Inc.","$0.00","$15,345.00","$0.00","$0.00","$0.00","$0.00","$0.00"
"1529","United Healthcare Services, Inc.","$0.00","$6,072.56","$1,989.49","$1,315.33","$99.63","$0.00","$20,163.96"
"1530","United Illuminating Co.","$0.00","$0.00","$0.00",NA,NA,NA,NA
"1531","United International Corporation","$0.00","$0.00",NA,NA,NA,NA,NA
"1532","United Medical Systems (DE), Inc",NA,NA,"$12,500.00","$12,500.00",NA,NA,NA
"1533","United Parcel Service",NA,NA,NA,"$0.00",NA,NA,NA
"1534","United Recycling",NA,"$12,879.00","$6,500.00",NA,NA,NA,NA
"1535","United Rentals Inc. c/o MultiState Associates Inc.",NA,NA,NA,NA,NA,NA,"$0.00"
"1536","United Services, Inc.","$1,058.59","$149.02","$707.36","$77.45","$1,316.65","$1,200.45","$13,220.50"
"1537","United Services Automobile Association","$0.00",NA,NA,NA,NA,NA,NA
"1538","United Technologies Corp.","$11,757.78","$7,402.44","$34,702.47","$15,603.05","$11,154.10","$37,272.90","$2,888.40"
"1539","United Way of CT","$0.00","$0.00","$0.00","$0.00","$0.00","$0.00","$0.00"
"1540","UNITE HERE","$0.00",NA,NA,NA,NA,"$617.10","$1,795.30"
"1541","Universal Health Care Foundation of Connecticut","$23,732.25","$0.00","$0.00","$0.00","$0.00","$0.00","$0.00"
"1542","University of Bridgeport",NA,NA,NA,NA,NA,"$0.00",NA
"1543","University of Saint Joseph",NA,NA,"$17,642.87","$32,857.15","$21,000.00","$6,374.03","$500.00"
"1544","Unum","$4,508.50","$0.00","$0.00","$0.00",NA,NA,NA
"1545","Urban Engineers, Inc.",NA,NA,NA,"$4,846.88",NA,NA,NA
"1546","Urgent Care of Connecticut",NA,NA,NA,NA,"$37,722.50","$40,944.75",NA
"1547","URS Corporation AES","$0.00",NA,NA,NA,NA,NA,NA
"1548","USA Hauling & recycling Inc.",NA,NA,NA,NA,"$0.00","$0.00","$0.00"
"1549","USA Town & Country Hauling","$0.00","$0.00","$0.00","$0.00",NA,NA,NA
"1550","US Biologic c/o MultiState Associates Inc.",NA,NA,NA,NA,NA,"$0.00","$0.00"
"1551","US Fireworks Safet Commission c./o American Promotional Events",NA,NA,NA,NA,"$11,135.00","$10,635.00",NA
"1552","US HealthVest",NA,NA,NA,NA,NA,"$6,390.00",NA
"1553","UST Public Affairs Inc.","$0.00",NA,NA,NA,NA,NA,NA
"1554","Utility Contractors Association of Connecticut",NA,NA,NA,NA,NA,"$0.00","$0.00"
"1555","Valley Emergency Medical Services",NA,NA,NA,NA,"$5,250.00","$6,750.00",NA
"1556","ValueAppeal",NA,NA,NA,"$5,317.50",NA,NA,NA
"1557","Value Options","$0.00","$0.00","$35,095.50","$35,095.50","$69,345.50","$52,643.25","$0.00"
"1558","Vanguard Health Systems",NA,NA,NA,NA,"$108,801.77","$0.00",NA
"1559","Vend-Pac","$0.00","$0.00","$0.00","$0.00","$0.00","$0.00","$0.00"
"1560","Verde Energy USA, Inc.",NA,"$10,000.00","$12,741.00","$11,698.50","$12,762.00","$12,762.00","$6,381.00"
"1561","Verizon Communications","$6,341.28","$5,344.13","$5,839.57","$5,849.28","$5,849.37","$0.00","$0.00"
"1562","Verizon Wireless","$0.00","$5,300.00","$0.00","$100.00",NA,NA,NA
"1563","VERMILLION, INC.",NA,NA,NA,NA,NA,NA,"$22,833.50"
"1564","VERNON, TOWN OF",NA,NA,"$12,000.00","$0.00",NA,NA,NA
"1565","Vertex Pharmaceuticals Incorporated",NA,NA,NA,NA,NA,NA,"$0.00"
"1566","VeruTEK Technologies, Inc.","$0.00","$7,066.66",NA,NA,NA,NA,NA
"1567","Victims of Chiropractic Abuse, Inc.","$0.00","$0.00",NA,NA,NA,NA,NA
"1568","Vigilant Solutions",NA,NA,NA,NA,NA,"$0.00","$0.00"
"1569","ViiV Healthcare",NA,"$0.00",NA,NA,NA,NA,NA
"1570","Viridian Energy",NA,"$0.00",NA,NA,NA,NA,NA
"1571","Viridian Energy, Inc",NA,NA,"$0.00","$4,038.88",NA,NA,NA
"1572","Visa, Inc.",NA,NA,"$2,658.75","$7,976.25",NA,NA,NA
"1573","Visiting Nurse Association of South Central Connecticut","$3,368.96","$1,807.40","$0.00","$1,173.00","$2,460.00","$0.00","$0.00"
"1574","VITAS Innovative Hospice Care®",NA,NA,NA,NA,NA,NA,NA
"1575","VNA Community Healthcare, Inc.","$5,575.00","$5,300.00","$0.00","$0.00","$0.00","$0.00","$0.00"
"1576","Vote Solar",NA,"$0.00",NA,NA,NA,"$0.00","$0.00"
"1577","Voya Services Company","$16,960.00","$25,440.00","$50,880.00","$25,524.00","$34,032.00","$34,032.00","$17,016.00"
"1578","Wakefern Food Corporation","$0.00","$0.00","$0.00","$0.00","$0.00","$0.00","$0.00"
"1579","Walgreen Co.",NA,NA,"$2,172.26","$833.52","$1,812.00","$1,870.00","$1,020.00"
"1580","Wal-Mart Stores, Inc.","$13,609.76","$12,400.65","$12,414.40","$12,441.84","$11,467.52","$12,414.84","$7,257.74"
"1581","Walnut Hill Care Center",NA,"$38,235.00",NA,NA,NA,NA,NA
"1582","Walt Disney Pictures","$16,375.02",NA,NA,NA,NA,NA,NA
"1583","Waste to Water",NA,NA,NA,"$18,986.25",NA,NA,NA
"1584","Waste to Water Environmental",NA,"$0.00","$0.00","$0.00",NA,NA,NA
"1585","Waterbury Hospital","$13,500.00","$18,000.00","$103,000.00","$210,000.00","$210,000.00","$64,800.00","$14,100.00"
"1586","Waterbury Regional Chamber of Commerce","$0.00","$0.00","$0.00","$0.00","$0.00","$0.00","$0.00"
"1587","Watershed Partnership, Inc.",NA,NA,NA,NA,NA,"$2,926.54",NA
"1588","Webster Bank","$0.00","$0.00","$0.00","$0.00","$0.00","$0.00","$0.00"
"1589","Weeks Marine, Inc","$0.00",NA,NA,NA,NA,NA,NA
"1590","WellCare of Connecticut Inc.",NA,NA,NA,NA,"$0.00","$0.00","$0.00"
"1591","Wells Fargo and Company","$3,886.67","$3,886.67","$3,886.67","$3,899.50","$0.00","$3,899.50","$0.00"
"1592","Wellspring Foundation, Inc.","$0.00","$0.00",NA,NA,NA,NA,NA
"1593","West Central Enterprise, Inc.","$16,050.00",NA,NA,NA,NA,NA,NA
"1594","Western Connecticut Health Network","$10,216.66","$0.00","$822.00","$585.33","$0.00","$4,583.33","$0.00"
"1595","We Work for Health","$0.00","$2,100.00","$5,250.00","$6,000.00","$5,976.25",NA,NA
"1596","Wheelabrator Technologies","$12,720.00","$9,540.00","$11,677.50","$16,624.50","$22,907.25","$12,148.50","$6,381.00"
"1597","Wheeler Clinic, Inc","$6,171.00","$6,825.00","$4,975.00","$5,630.00","$16,840.00","$15,840.00","$7,350.00"
"1598","William Backus Hospital","$0.00","$1,750.00","$0.00","$0.00","$0.00","$0.00",NA
"1599","William Blair & Company, LLC",NA,NA,NA,"$0.00","$12,464.37","$14,706.26","$9,680.63"
"1600","Willimantic Waste Paper Company",NA,NA,NA,"$15,264.04","$0.00","$0.00",NA
"1601","Wind Corporation",NA,NA,NA,NA,NA,"$3,545.00","$23,292.50"
"1602","Windham Regional Community Council","$121.70",NA,"$1,305.45","$285.90","$772.00","$117.82","$0.00"
"1603","Wine and Spirits Wholesalers of CT","$0.00","$0.00","$0.00","$0.00","$0.00","$0.00","$0.00"
"1604","Wine Institute","$3,816.00","$3,816.00","$4,028.00","$4,041.30","$4,577.90","$4,254.00","$4,754.00"
"1605","Winn Development Associates","$64,086.90","$58,300.00","$60,830.68","$63,810.00","$64,607.63","$69,127.50","$27,385.13"
"1606","Winters Brothers Waste Systems, CT",NA,NA,NA,"$64,129.05","$73,700.55","$32,543.10","$22,971.60"
"1607","Woman's Health Connecticut",NA,NA,"$0.00","$0.00",NA,NA,NA
"1608","Workers' Compensation Trust","$4,664.00",NA,NA,NA,NA,NA,NA
"1609","Workforce Investment Board Alliance","$0.00","$0.00","$0.00","$0.00","$0.00","$0.00","$3,150.00"
"1610","Working Families Organization","$0.00","$0.00","$3,070.14","$245.80","$256.68","$0.00","$0.00"
"1611","World Properties, LLC","$19,080.00",NA,NA,NA,NA,NA,NA
"1612","World Wrestling Entertainment, Inc.","$44,520.00","$44,520.00","$37,798.17","$0.00","$0.00","$0.00",NA
"1613","World Youth Peace Summit",NA,"$48,150.00","$44,750.00","$0.00",NA,NA,NA
"1614","WPT Enterprises, Inc.",NA,NA,NA,NA,NA,"$0.00",NA
"1615","Wyeth","$0.00",NA,NA,NA,NA,NA,NA
"1616","Xcellume",NA,NA,NA,NA,NA,NA,"$1,500.00"
"1617","Xerox Corp.","$0.00","$21,644.00","$12,720.00","$25,352.00","$8,000.00","$8,734.00","$2,871.90"
"1618","Xerox State and Local Solutions Inc.",NA,NA,NA,"$0.00","$4,785.75","$21,535.82","$2,871.45"
"1619","Yahoo!, Inc.","$470.00",NA,NA,NA,NA,NA,NA
"1620","Yale Farm Golf Club LP","$0.00",NA,NA,NA,NA,NA,NA
"1621","Yale New Haven Health System","$0.00","$0.00","$0.00","$0.00","$29,579.59","$52,999.99","$56,250.00"
"1622","Yale University","$0.00","$0.00","$0.00","$0.00","$0.00","$0.00","$0.00"
"1623","Yankee Institute for Public Policy Studies, Inc.",NA,NA,NA,NA,NA,NA,"$0.00"
"1624","Yellow Cab Co.","$450.00","$3,900.00","$0.00","$0.00","$0.00","$0.00","$0.00"
"1625","YMCA's of CT Public Policy Cmte.","$0.00","$0.00","$0.00","$0.00",NA,NA,NA
"1626","YMCA of Greater Hartford","$0.00","$0.00","$29,799.96","$27,083.31","$12,999.94","$12,499.93","$8,291.63"
"1627","YMCA of Westport Weston, Inc",NA,NA,"$0.00","$0.00",NA,NA,NA
"1628","Yolo Laser Center & Spa",NA,NA,NA,NA,"$0.00",NA,NA
"1629","Youth Continuum",NA,NA,NA,NA,NA,NA,"$2,850.00"
"1630","Youth Continuum, Inc.","$6,450.00",NA,NA,NA,NA,NA,NA
"1631","Youth Continuum Inc.",NA,NA,"$18,750.00","$18,000.00","$11,625.00","$9,000.00",NA
"1632","YWCA of New Britain","$0.00","$0.00","$0.00","$0.00","$0.00","$0.00",NA
"1633","Z-Medica LLC",NA,NA,NA,"$26,837.50",NA,NA,NA
"1634","Zucyla Enterprises, LLC",NA,NA,NA,"$11,010.00",NA,NA,NA
"1635","Zuffa, LLC",NA,NA,"$1,551.90","$0.00","$0.00","$21,962.00","$0.00"
